{"type":"FeatureCollection","features":[{"type":"Feature","id":1,"geometry":{"type":"Polygon","coordinates":[[[-73.209735288153013,5.3383528415352961],[-73.209872354725348,5.3384726591108098],[-73.210051070700331,5.3386822389190618],[-73.210091978162211,5.3387289604980026],[-73.21018213070073,5.3388319364695702],[-73.210292142068681,5.3389541561342826],[-73.210295331064628,5.3389576958658331],[-73.210396649585675,5.3390415657405184],[-73.210509922794643,5.3391075139254722],[-73.210670962594804,5.339161567677043],[-73.210891661620849,5.3392157131595033],[-73.211028855896927,5.3392458080724152],[-73.211126914375541,5.3392504126013138],[-73.211160127238031,5.3392519711264415],[-73.211327111556898,5.3393120170607711],[-73.211452292689103,5.3394019060979252],[-73.211583413843414,5.3395097420058191],[-73.211708557204133,5.3396295326016885],[-73.211786024805178,5.3397014172114714],[-73.211867069009998,5.3397314689569821],[-73.211899341181606,5.3397434380340778],[-73.212024615843291,5.3397615539773788],[-73.212049530661261,5.339763378701825],[-73.212191676604562,5.33977375238163],[-73.212322990213806,5.3397440360832213],[-73.212337345192282,5.3397327657793232],[-73.212406623566778,5.3396783666881271],[-73.212478366983021,5.3395767927596012],[-73.212514347059425,5.3394512518986019],[-73.21262194104969,5.3393138417852262],[-73.212783199385115,5.3392123937617937],[-73.212812742114295,5.3389149537869303],[-73.212798524732079,5.3388141991408382],[-73.212808241007451,5.338708665497367],[-73.212851471418219,5.3385984014199463],[-73.212923376712411,5.338521746806042],[-73.213067113556406,5.3384068188445095],[-73.213186853790205,5.3383446289263716],[-73.213330370300298,5.3383880014299994],[-73.213425958341247,5.3384840805007689],[-73.213425827939545,5.3385752204949029],[-73.213377762773518,5.3387190634588562],[-73.213493704271002,5.3388964187595516],[-73.213577244993814,5.3388965356714584],[-73.213690636913327,5.3388787488800267],[-73.213827996664691,5.3387952117545039],[-73.21390367011827,5.3387586426221363],[-73.214013096926863,5.3387057597878673],[-73.214210046656262,5.3386761370189539],[-73.214347297589654,5.3386703435863554],[-73.214490470558758,5.3386944705982025],[-73.214562053895634,5.338706534104146],[-73.21460921074646,5.338703225498338],[-73.2146456036117,5.3387006732223465],[-73.214723258271704,5.3386409699296848],[-73.214777086293452,5.3385513336020578],[-73.214832747133528,5.3385116024533481],[-73.214860702559349,5.3384916473964772],[-73.215081612926042,5.338396261702977],[-73.215242732765887,5.3383905105385239],[-73.215433668728792,5.3383907785364881],[-73.215588776600725,5.3384149217361436],[-73.215714104322444,5.3384031361207258],[-73.215720030854698,5.3384005047043779],[-73.215821574206245,5.3383554369786825],[-73.215952859936522,5.3383436594572089],[-73.216107977700972,5.3383618158700168],[-73.216221690678424,5.3384162887056545],[-73.216233202000637,5.3384218024491279],[-73.216316666281102,5.3384344711987888],[-73.216352515955805,5.3384399084998586],[-73.216477882348329,5.3383982204264058],[-73.216573561220855,5.3382488412359415],[-73.216663240715945,5.3381233678240276],[-73.216770794236709,5.3380158655646115],[-73.216908120713185,5.3379562468082291],[-73.217007608214487,5.3379755660444017],[-73.216955186732434,5.3378230805955651],[-73.217019596177408,5.3378293209912595],[-73.217079354328689,5.3377636165225839],[-73.2170676010889,5.3376380010178135],[-73.217091654356352,5.3375004730932725],[-73.217187324235567,5.3373630548860147],[-73.217294952400096,5.3372017174102293],[-73.21732975796192,5.3371530317119458],[-73.217414521762748,5.3370344318185206],[-73.217545944189908,5.3369269565387496],[-73.217659459316565,5.3368254482607291],[-73.217707371597896,5.3366999163929796],[-73.217677765916108,5.3365324122659503],[-73.217707797876528,5.3363948915359636],[-73.217767662147878,5.3362514370791141],[-73.217869309820742,5.3361020650831996],[-73.218018671924142,5.335970696615334],[-73.218160007578263,5.3358411897440901],[-73.218162061629812,5.3358393137583091],[-73.218287465793878,5.3357617481311284],[-73.218412817797287,5.335732012947016],[-73.218556007853465,5.3357441771770002],[-73.218721477713984,5.3357102745345166],[-73.218758933577874,5.3357025934249256],[-73.2188425759241,5.3356309471354466],[-73.218908381116876,5.3355114155443362],[-73.218915056784397,5.3354454223932866],[-73.218920480595671,5.3353918192020933],[-73.218986485437938,5.3352745853788086],[-73.219020751406504,5.3352137282559218],[-73.219028149229644,5.3352005828656104],[-73.219099916028256,5.3350870542491586],[-73.219113698138642,5.3350681046343089],[-73.219195564323797,5.334955603043662],[-73.219279248038845,5.3348480684086148],[-73.219345026251915,5.334752472273796],[-73.219476504437068,5.3346031308548056],[-73.219497237407552,5.3345824086762157],[-73.219572105068551,5.3345075733907903],[-73.219698926564149,5.3344653969854736],[-73.219715377862371,5.3344599264094565],[-73.219816867254565,5.3344241900493259],[-73.219880526664952,5.3343724871255587],[-73.219912440906398,5.3343465731608166],[-73.219966224861366,5.3342868365932601],[-73.220032020161568,5.3341732908896846],[-73.220121688864822,5.3340538015667196],[-73.220135467377872,5.3340451051225379],[-73.2202351626226,5.3339821966460619],[-73.220324676642463,5.3339763348649969],[-73.220396322931947,5.3339405472434693],[-73.220450085303128,5.3339047434341857],[-73.220533685381213,5.3338570128158986],[-73.220665002587737,5.3338213088313919],[-73.220754542687928,5.3337975091727294],[-73.220756878227292,5.3337975127700039],[-73.22086791482235,5.3337976656547594],[-73.220933611197154,5.3337558948437174],[-73.221023223243094,5.3336782689619531],[-73.221158543332081,5.333548419449043],[-73.221172590742412,5.3335349377122423],[-73.22122646642822,5.33340941483769],[-73.221322183072232,5.3332361091841367],[-73.221370093554924,5.3331045977240423],[-73.221549234909219,5.3330091580712455],[-73.221746217014243,5.3329555989467892],[-73.221754531246575,5.3329514512734999],[-73.221889522183687,5.3328840335963035],[-73.2219433466081,5.3327943954700405],[-73.221931651824207,5.3326269156246981],[-73.221985528409391,5.3325013999447055],[-73.222054290572999,5.3324154886090049],[-73.222057251141166,5.3324117878987698],[-73.222176637941459,5.3323760668270719],[-73.222290019069078,5.332370237421574],[-73.222409354607976,5.3323704037961832],[-73.222528748602826,5.3323346926170618],[-73.222689985354521,5.3322392187900087],[-73.222775186225817,5.3322200677270182],[-73.222875014570207,5.3321976116555536],[-73.223089927358217,5.3321261461297924],[-73.223280894797426,5.3321024867654128],[-73.22353160869676,5.3320310608098866],[-73.223630491853669,5.3320280058129201],[-73.223716591147706,5.3320253429203168],[-73.223865816554166,5.3319896632174455],[-73.223991215322314,5.3319180699879967],[-73.224104795200105,5.3317687060860193],[-73.224164713430753,5.3315833836913145],[-73.224230563589572,5.3314339532394515],[-73.224263227865663,5.3313831739194377],[-73.224338197150018,5.331266638869395],[-73.224357286159773,5.3312508494722541],[-73.22451143265647,5.3311233408945737],[-73.224696568891488,5.3310099678608269],[-73.224869820585695,5.3308547080034696],[-73.224977330939055,5.3307771064034437],[-73.225067049105007,5.3306217305335606],[-73.22516276305106,5.3304424371938417],[-73.225200403275949,5.3303883744490674],[-73.225258430232316,5.3303050081946859],[-73.225383854181473,5.3302154779870738],[-73.225509282627229,5.33012594058484],[-73.225634731757452,5.330024435904166],[-73.225649541792905,5.3300108669331179],[-73.225778118765106,5.3298930611410089],[-73.225834519747252,5.3298254069421525],[-73.225867772179924,5.3297855319019369],[-73.225993209618878,5.329684029919215],[-73.226106698665149,5.3296004514248629],[-73.226213572298491,5.3295524267282781],[-73.226226107049172,5.3295467906769831],[-73.226375375623036,5.3294812085161265],[-73.226518711369408,5.3293857176019372],[-73.226673991911184,5.3292842578873536],[-73.226690299317795,5.3292667849593052],[-73.226757647747206,5.3291946620291775],[-73.226805533048889,5.3290870752335326],[-73.226859415929255,5.3289555718673149],[-73.226908337249938,5.3289066721304215],[-73.226937093072365,5.3288779306971108],[-73.227038580665919,5.3288421844444622],[-73.227187764703558,5.3288304276073388],[-73.22728885030017,5.3288064516816132],[-73.227313112210311,5.3288006987184628],[-73.227408661580455,5.328741020606806],[-73.227492349792044,5.3286334841731247],[-73.22758793963169,5.3285439018047933],[-73.227701381013901,5.3284962098574251],[-73.227819391851426,5.3284039016439442],[-73.227838759650979,5.3283887489667681],[-73.227970204561245,5.3282633295142654],[-73.228053910759343,5.3281438320973749],[-73.228173440551814,5.3280004558815595],[-73.228274981205402,5.3279288347731431],[-73.228334789718758,5.3278212551719957],[-73.228388649216754,5.3277136791681823],[-73.228490259118132,5.3275822432511788],[-73.228520272192782,5.3274566826050291],[-73.228603927129484,5.3273670867468992],[-73.228753185810831,5.3273074886748804],[-73.228860727640438,5.3272059624104617],[-73.228877518882371,5.3270837652287986],[-73.228878804912881,5.3270744086822868],[-73.228861110751609,5.3269248595198757],[-73.228825547061319,5.3267513704047023],[-73.228795888319553,5.326625730618237],[-73.228837858780139,5.3264762749853656],[-73.228975182558599,5.3264166508330133],[-73.229106585200725,5.3263211428317501],[-73.229226072725055,5.3262076690739164],[-73.229351563224043,5.3260762655325333],[-73.229422018811078,5.32597064195686],[-73.229435266724124,5.3259507804294657],[-73.229483175408177,5.3258252557562198],[-73.229533373766174,5.3257356949716197],[-73.229566912183202,5.3256758459887612],[-73.229686395210933,5.3255683599171588],[-73.229799898646377,5.3254728285335267],[-73.229949174414855,5.325395281792118],[-73.230092484980162,5.3253177278561568],[-73.23027761941654,5.3252043458292198],[-73.230316330734013,5.3251493630779247],[-73.230391203790987,5.3250430236419266],[-73.230361609800411,5.3248695345266892],[-73.230302095365346,5.3247618002422108],[-73.23027843060504,5.3246122519791781],[-73.230314405285526,5.3244807162373951],[-73.230375921611426,5.3244165550053486],[-73.230451843277933,5.3243373670012284],[-73.230559419281747,5.3243015901715962],[-73.230648835275474,5.3242718495915087],[-73.230798145218216,5.3241763658719403],[-73.230905699638299,5.3240628750270274],[-73.230911817726167,5.3239492465858067],[-73.230911949027188,5.3238535560221258],[-73.23100759642341,5.3237280880061961],[-73.231133023070527,5.3236325710116734],[-73.231312121257361,5.3235670311189596],[-73.231464163340434,5.3235418492023507],[-73.23149116728348,5.3235373750751531],[-73.231670223202173,5.3235017322445],[-73.23179566963438,5.3233942524681339],[-73.23184955881004,5.3232627410080422],[-73.231837819959367,5.3231191867264709],[-73.231844053160501,5.3229218296041552],[-73.231850253986011,5.3227543749398274],[-73.231944903134718,5.3226199541729597],[-73.231963836561761,5.3225930527525858],[-73.231991104006227,5.3225678942183468],[-73.232119169264195,5.3224497268988022],[-73.232190859620459,5.3223900137135605],[-73.232399779326329,5.3223304974798591],[-73.232566909335333,5.3222888615671247],[-73.232769847650331,5.3222353087378957],[-73.233014465045471,5.3222535901564845],[-73.233075830285316,5.3222260115465962],[-73.233133870731535,5.3221999285092867],[-73.233179132710745,5.3221647470308522],[-73.233295154247912,5.3220745495262349],[-73.233504145899587,5.3219611989755515],[-73.233647431283885,5.3219015919103212],[-73.233731043952503,5.3218418967115948],[-73.233844532099454,5.3217583236131611],[-73.233969949753316,5.3216747586086672],[-73.234137163399339,5.3215733114845571],[-73.234334212953513,5.3214659306336358],[-73.234501431096135,5.3213585066152023],[-73.23459113936957,5.3212091049416888],[-73.234645048330265,5.321053676011763],[-73.234758623711457,5.3208983325174986],[-73.234806535093469,5.3208536371111421],[-73.234848242052692,5.3208147270434392],[-73.234917061772933,5.3207803531562199],[-73.234931839432818,5.3207729769168095],[-73.235009414053195,5.3207670980485666],[-73.235122817663864,5.320737351173296],[-73.235206465406009,5.3206597144996852],[-73.235254322828723,5.3205700673801619],[-73.235326043761859,5.3204804526362155],[-73.235487338070129,5.3203431207638783],[-73.235588881421677,5.3202655074726373],[-73.235684519824702,5.3201400367587484],[-73.235803983067342,5.3200445098717166],[-73.235835587042686,5.320029307731839],[-73.235898036864853,5.3199992766707354],[-73.235965190141371,5.3199669802174396],[-73.236078635120862,5.3199133104763643],[-73.236210089024325,5.3197759264433149],[-73.236371516432314,5.3195428941147869],[-73.236544761831283,5.3193876288614463],[-73.236694001626859,5.3193399836788196],[-73.236825271169266,5.3193401626438961],[-73.23702813573982,5.3193404387357397],[-73.237111803267055,5.319265170876446],[-73.237147625062789,5.3192329508654881],[-73.237189584731539,5.3190894685296666],[-73.237241533170163,5.3190161728835932],[-73.237291218015287,5.318946068032103],[-73.237380767108675,5.3189043259993518],[-73.237418597989858,5.3188993869226628],[-73.23760755184702,5.3188747338074167],[-73.2379119184003,5.318827299965438],[-73.238150653329967,5.3187857620787833],[-73.238383359204647,5.3187860777408043],[-73.238586281331777,5.3187444903914471],[-73.238741539390503,5.3186549889620602],[-73.23888489492191,5.3185415457812137],[-73.239081887818827,5.318476023874954],[-73.239243117375906,5.3183865314388221],[-73.239392405734918,5.3182970228148818],[-73.239559647259853,5.3181716474291081],[-73.23967553120076,5.3181245076654173],[-73.239720846240004,5.3181060787580501],[-73.239911823571788,5.3180704602090785],[-73.240096817713948,5.3180587492374318],[-73.240281848728273,5.31801115261813],[-73.240431057047601,5.3179814525075466],[-73.240639877828073,5.3179936985758491],[-73.240771145571898,5.3179938766416166],[-73.240820063295246,5.3179821809583974],[-73.240920369179662,5.3179581924421937],[-73.241063684241624,5.3178746589139436],[-73.241195066199282,5.3177911011039987],[-73.241275758769234,5.3177158188555298],[-73.241284681842558,5.3177074947306266],[-73.241463848377862,5.317588123218882],[-73.241643023007043,5.3174567808312974],[-73.241778135352604,5.3173847865042321],[-73.2419117233473,5.3173136051642969],[-73.242126655021082,5.3172241846739769],[-73.242326898067859,5.3171421539128554],[-73.242359487700185,5.3171288097723153],[-73.242616174896511,5.3170394441406099],[-73.242783303106933,5.3169978064291739],[-73.242974402746427,5.316878450205877],[-73.243147581595565,5.316771031583416],[-73.243273643164059,5.3167340514609176],[-73.243350536997639,5.3167114964639985],[-73.243547422875224,5.316723724545855],[-73.243708489655035,5.3167478668461294],[-73.243845618280602,5.3168317789890081],[-73.243935013589976,5.3169096494863117],[-73.244048347053536,5.3169397066277435],[-73.24417966336074,5.3169040071397813],[-73.24419095884565,5.3169020682014398],[-73.244352737888505,5.3168743277136006],[-73.244531775820747,5.3168506548594214],[-73.244770522441627,5.3167911665046859],[-73.245057016767873,5.3167257642082291],[-73.245098910786055,5.316718191017288],[-73.245188316887266,5.3167020167102867],[-73.245403166722724,5.3166724056325751],[-73.24552232509518,5.3166062586974565],[-73.245564386387287,5.3165829086998482],[-73.245767509962548,5.3163977805587139],[-73.245887021768624,5.316266357232184],[-73.246078224830171,5.3160692474234246],[-73.246215641238791,5.3159378537745612],[-73.246400736105045,5.315842415920347],[-73.246510739379062,5.3158083594937837],[-73.246573842109115,5.3157888217223555],[-73.246752905222365,5.3157471894068973],[-73.246938031564866,5.3156278259889742],[-73.247093329193774,5.3155084185043409],[-73.247212824811982,5.315388966053594],[-73.247284679744155,5.3152036598466417],[-73.247338603094022,5.3150362690342368],[-73.247404524299327,5.3148210414835342],[-73.247512189336021,5.3146238210581647],[-73.247667533729668,5.3144685279258566],[-73.24782880015897,5.3143491312330546],[-73.248013879736732,5.3142656417716401],[-73.248210913103094,5.3141702174072813],[-73.248384082059715,5.3140747597680322],[-73.248418410980833,5.314041931815356],[-73.248521486777179,5.3139433679177523],[-73.248629112243691,5.3137760472524569],[-73.24877847704505,5.3136327088081279],[-73.248957657070207,5.3135013727158391],[-73.249163958849579,5.31343460794647],[-73.24917852157148,5.3134298945996585],[-73.249411322774279,5.3133584407651124],[-73.249560488825466,5.3133586422132426],[-73.249715680334361,5.3133169784214838],[-73.249870945587645,5.3132214947019101],[-73.250002356323648,5.3131140212207688],[-73.250169616734411,5.3129707034609117],[-73.250420404378133,5.3128334768092182],[-73.250617433247896,5.3127440284398686],[-73.250642001826861,5.3127369507753466],[-73.250886033763436,5.3126666363818531],[-73.251262075384432,5.3125654644503264],[-73.251374882744585,5.312544423911759],[-73.251453064407372,5.3125298414047641],[-73.251679835655864,5.3125002366223555],[-73.251705579648728,5.3125342759617773],[-73.25181561439905,5.312547009462631],[-73.251940886362775,5.3125722965999351],[-73.25210335968228,5.3125905159652298],[-73.252155183115178,5.3126003284680987],[-73.252294250679086,5.3126266588189583],[-73.252543498683451,5.3126269915681128],[-73.252556784368039,5.3126270104538902],[-73.252861086170128,5.3126274160481097],[-73.253052041918181,5.3126157095730555],[-73.253296735755725,5.3125741716864017],[-73.253541470962091,5.3125027241470946],[-73.253833987148766,5.3123894779177796],[-73.254186135581676,5.3123062186827799],[-73.2544069281372,5.3122885748835325],[-73.254651605786933,5.3122589988794049],[-73.254973806795704,5.3122654056496996],[-73.255224413675705,5.3122597624038459],[-73.255486950062675,5.3122601131394553],[-73.255809196037546,5.3122306306648044],[-73.256006187135768,5.3121651069598501],[-73.256197227420046,5.3120876087818747],[-73.25622330506144,5.3120745865986532],[-73.256412177979598,5.3119802405214376],[-73.256740527653164,5.3118431145937741],[-73.257074797563803,5.3117478700938721],[-73.257277699006579,5.3117182365331184],[-73.25743885481927,5.3116825640248608],[-73.257737282249764,5.311617171620922],[-73.257934277844583,5.3115456584311547],[-73.258113464164978,5.3114083445452147],[-73.258388162983294,5.3112352556282838],[-73.258698680000066,5.3110502668820478],[-73.25904504759086,5.3108294329577124],[-73.259343628805368,5.3106444262250774],[-73.259582477049662,5.3105071797882921],[-73.259964607080917,5.3103103181924007],[-73.260191550999252,5.3101551167909955],[-73.260364749633425,5.3100297468012005],[-73.260550016270201,5.3098027219438704],[-73.260753180314964,5.3095817009605693],[-73.261075865159,5.3092172947681524],[-73.261284989910337,5.3089962809794082],[-73.261476150703743,5.3088290682327637],[-73.261568263764332,5.3087768994601889],[-73.261655278568185,5.3087276292025471],[-73.261840396816808,5.3086202204726538],[-73.261983778428601,5.3084828454328052],[-73.262151083805406,5.3083036492199023],[-73.262342350718882,5.308046722803847],[-73.262635321962478,5.307592564271272],[-73.26285047936608,5.3073177305547219],[-73.263232780268538,5.3069952687425586],[-73.26372867543796,5.306493523483244],[-73.263872103814492,5.3063202717890423],[-73.264188791979109,5.3059738052728074],[-73.264312762623831,5.3058615429018419],[-73.265013180713652,5.3052272807403611],[-73.265544780766959,5.3047913811432705],[-73.265932892189198,5.3045825531682373],[-73.26600563025562,5.3045236934396511],[-73.266058327829512,5.3044810511855243],[-73.266213603874689,5.3043735920935591],[-73.266356927929849,5.3042780903875304],[-73.266458374154581,5.3042722447942232],[-73.26654194005846,5.3042424439596081],[-73.266649402747703,5.3041947448176154],[-73.266870301423239,5.3040933579481084],[-73.26702555498531,5.3040038484248431],[-73.267216662718795,5.3038725195271699],[-73.267348021294083,5.3038009182037884],[-73.267503290144703,5.3036994449994106],[-73.267789910376052,5.3035323644530479],[-73.26799299887773,5.3033651660955261],[-73.268219955386598,5.3031920124274547],[-73.268500650884278,5.3029950114366704],[-73.268757383946081,5.3028697565600273],[-73.268978284420257,5.302768367891872],[-73.269199175901235,5.3026729588160046],[-73.26945589367449,5.3025596640233124],[-73.269778305124646,5.3023926185505408],[-73.270005238251088,5.3022433895468621],[-73.270160534980675,5.3021180006712374],[-73.270280061175868,5.3019686295746435],[-73.270560894269806,5.3016639788355979],[-73.270632694343306,5.3015085678921823],[-73.27059112138312,5.3013589890521624],[-73.270430297420262,5.301143470121132],[-73.270150241340502,5.3008560252114876],[-73.270013183761364,5.3007182814496447],[-73.269822489716091,5.3005386040994278],[-73.269572195800151,5.3002990480886991],[-73.269529555344661,5.3002454781723918],[-73.26940539943962,5.3000895006560729],[-73.269371007565894,5.3000344999183842],[-73.2691668803472,5.2997947991168379],[-73.268964236110548,5.2994042271495143],[-73.268915286910897,5.2993098837702677],[-73.268898313106604,5.2992771691322114],[-73.268775552050045,5.2987822155529463],[-73.268641764405857,5.2981410636853479],[-73.268597918858802,5.298068163740977],[-73.268350708718174,5.2976571366937142],[-73.268183727996586,5.2973832400707028],[-73.268138013658358,5.2973082563971232],[-73.267882616989141,5.2970399175843728],[-73.267645070963226,5.2967903332335302],[-73.267440217092314,5.2965844505381812],[-73.267253439594526,5.2963967368461677],[-73.267219327409975,5.2963624537904721],[-73.266897650705971,5.296011455590464],[-73.266827239185716,5.2959346247094379],[-73.266491696734363,5.2957270404967858],[-73.266298540345304,5.295607542180564],[-73.266244345400196,5.2955740136560587],[-73.265605408562692,5.2951795934897223],[-73.265534706561425,5.2951069219731339],[-73.265112458673002,5.2946729127510057],[-73.264762717725205,5.2943622842183728],[-73.264630621705805,5.2942449604628852],[-73.263722561846691,5.2937602213834341],[-73.263519006596823,5.2936889510106129],[-73.263480129804122,5.2936753388721138],[-73.263464657867644,5.2936699222554608],[-73.262758192736385,5.2934440889998351],[-73.26201819098668,5.2931282497952186],[-73.261390403044629,5.2927900660350584],[-73.260807519151626,5.2924294549817379],[-73.260269595965042,5.2920014235532538],[-73.259922167174238,5.291742327073127],[-73.259597304172189,5.2915300546946726],[-73.260259337398452,5.291270471681317],[-73.261280799069596,5.2908220094545788],[-73.26187572488476,5.2905529071173873],[-73.262639117101514,5.2901378367182117],[-73.263189431147282,5.2896662610155811],[-73.263750966933515,5.2891946997021178],[-73.264267524026991,5.2888017921954402],[-73.264716961118836,5.288262611756652],[-73.265143898971701,5.2877683812323335],[-73.265467414789327,5.287435597901081],[-73.265615823611313,5.287282937983707],[-73.265619476657491,5.2872791797168954],[-73.26561810339274,5.2872792336762444],[-73.26490891691293,5.2873070218281422],[-73.263741952129351,5.2875079024942506],[-73.263122603425359,5.2875510375768426],[-73.262474166149786,5.2875961988320164],[-73.260735178585605,5.2877063621853946],[-73.25999299058401,5.2876752231595487],[-73.259539144116161,5.2876561818138512],[-73.259074964438014,5.2876367069949675],[-73.258797023563773,5.2876391594461767],[-73.256886365313449,5.2876560262311409],[-73.254643682759706,5.2876758221080253],[-73.251468762972991,5.2877840519189778],[-73.251404314857211,5.2877889352376739],[-73.248697566839212,5.2879940139390849],[-73.248686376574994,5.287994569720154],[-73.247688487933317,5.2880441718275781],[-73.246756376605447,5.288090504000043],[-73.246274253653837,5.2881144691339337],[-73.244412100338138,5.2880557416056782],[-73.243189401869358,5.2879866269078324],[-73.242508668140488,5.2877638909173772],[-73.241630540417077,5.2873154871465315],[-73.241597327554587,5.2872985277314113],[-73.24157305934915,5.287280066448421],[-73.241399715024784,5.2871482042527829],[-73.241001713758067,5.2868454456873399],[-73.240768026723003,5.2866676820943965],[-73.240190229395523,5.2863656978452278],[-73.239344306394571,5.2859235785369165],[-73.239258395058869,5.28587712495594],[-73.239153714872032,5.2858205225256629],[-73.238661669700264,5.2855544679908837],[-73.238405465439826,5.2854159346242602],[-73.238272367575689,5.2853439681761616],[-73.237785950361285,5.2852017817634138],[-73.237375259660439,5.2851734702060718],[-73.237020227101766,5.2851489942572716],[-73.2367876228505,5.2851329584459057],[-73.235632120825699,5.2851538856698994],[-73.234790864406818,5.285074024073543],[-73.234488542012571,5.2850861406394651],[-73.233720645091637,5.2851169181378763],[-73.233627221718848,5.2851206620155242],[-73.233508793595888,5.2851944540873879],[-73.233287327448181,5.2853324505587675],[-73.233234646062044,5.2853652767127475],[-73.233014772613615,5.2855022794332651],[-73.232984129114243,5.2855213738389413],[-73.232826740561563,5.2856355310814687],[-73.232535401587484,5.2858468483799248],[-73.231715222579396,5.2864417490140641],[-73.231649938993428,5.2864966058602523],[-73.23143822239598,5.2866745034521143],[-73.231303604677578,5.2867876201791022],[-73.231013754980779,5.2870311709783095],[-73.230940283067582,5.2870929076381135],[-73.23089255604657,5.287164055703153],[-73.230838281061779,5.2872449650096707],[-73.230773796973097,5.2873410926438185],[-73.230722436691053,5.2874464635100251],[-73.230111371642465,5.2887001400259281],[-73.229826694846054,5.2892841894402336],[-73.229605887901357,5.2896282907395014],[-73.229163413360823,5.290317830629828],[-73.229112843582811,5.290406565836749],[-73.228846451802269,5.2908740127519298],[-73.228702362424031,5.2911268508499179],[-73.227636933797442,5.2923369947828203],[-73.227409072570595,5.2925146441618773],[-73.227096229007714,5.2927585501932768],[-73.227028537037313,5.2928113251088993],[-73.22616397109033,5.2933611472255038],[-73.225513005820517,5.2935851557566718],[-73.225056784243179,5.2936582868267807],[-73.225037170029339,5.2936614308566803],[-73.22497409787627,5.2936715410351196],[-73.224955034047525,5.2938115969539643],[-73.22494865965291,5.2938584282501999],[-73.224849751314935,5.2945850570810444],[-73.224669290655186,5.295293255205836],[-73.224645332715909,5.2953431927604262],[-73.224493290632836,5.2956601075541752],[-73.222853466814001,5.2972568754306675],[-73.221414330307084,5.2986582260224591],[-73.221349766178719,5.2987210940294354],[-73.221289225617227,5.2987800445895497],[-73.219998577971978,5.300625626997217],[-73.219936942935533,5.3007137632556667],[-73.219891249281716,5.3007545538056995],[-73.219614431660659,5.3010016668195616],[-73.219396278615307,5.3011964105120306],[-73.218961719907384,5.3015843384725239],[-73.218375958183856,5.3021072465782302],[-73.21818610680333,5.3022767256164336],[-73.218001843809986,5.3024412161152652],[-73.21789411761938,5.302537384218974],[-73.217842976771919,5.3025797045157832],[-73.217654171302911,5.3027359482314846],[-73.216618843884476,5.3035927188549064],[-73.215531618389434,5.3044924401999056],[-73.21365284110567,5.3053226628365788],[-73.209380618021044,5.3085629498461184],[-73.207623581962707,5.3096526862482927],[-73.206546413586068,5.3110624508971904],[-73.206274302117322,5.3113897978266822],[-73.205818712763346,5.3117786134180207],[-73.204533884631019,5.3132416026435303],[-73.204442970366756,5.3134767231979341],[-73.204151124174984,5.3137428182021544],[-73.203960610893432,5.313909395128154],[-73.203737882996847,5.3141814751206473],[-73.203637256054492,5.314373393143252],[-73.203395593831544,5.31456069584506],[-73.20321006908938,5.3147296469812808],[-73.203004072180136,5.314816026863812],[-73.202715581358973,5.315001343862547],[-73.202389810041666,5.3153475675618314],[-73.201437630342355,5.3160808540737543],[-73.201228222304564,5.3162018290767215],[-73.200831859602602,5.3164308090602015],[-73.200300432219137,5.3166199032115191],[-73.200035738358622,5.3166705602237734],[-73.199689720604056,5.3166766810096009],[-73.199682722979219,5.3166768051160629],[-73.199464412552572,5.3167342744927746],[-73.198983055823305,5.3169859200897287],[-73.19852488811307,5.3171164261077486],[-73.197474711089001,5.3173959174132275],[-73.197414789261074,5.3174086715984945],[-73.196819822976408,5.3175353078337695],[-73.196674810893796,5.3173652370416393],[-73.196597851409649,5.3172749774837893],[-73.196468172767936,5.3171706876027409],[-73.196466482042467,5.3171693287271058],[-73.196248260648645,5.3169938305264246],[-73.195832697420997,5.3167786227608085],[-73.195776621094126,5.3167674091142176],[-73.19541694713439,5.3166954822362955],[-73.194877583233847,5.3166740738749976],[-73.194371049983943,5.316727005272643],[-73.194045643791412,5.3168132079887283],[-73.192760858826546,5.3172081425673099],[-73.192369142921564,5.317285432102592],[-73.192002649402696,5.3173096679324043],[-73.191440162133745,5.3171862009079867],[-73.191278251789868,5.3171105229578082],[-73.191092923099859,5.3171391510765496],[-73.190833218678051,5.3173492605854822],[-73.189991643899191,5.3184665207388724],[-73.189727713563116,5.3187509169467697],[-73.189253342767529,5.3190317626312407],[-73.189171377656919,5.319080289149535],[-73.188812613811024,5.3194553460129139],[-73.187942550308435,5.3203373120427964],[-73.187262814827022,5.3205757070286825],[-73.186735613357826,5.3206822506108313],[-73.186340298366019,5.3207064396759005],[-73.185928695752693,5.3206026669050077],[-73.185632331366946,5.3205320764196706],[-73.18537695268418,5.3205977404188527],[-73.185176931769945,5.3207556307931885],[-73.185014543886041,5.3209551795633017],[-73.184939847995565,5.3210469706665782],[-73.184642659830843,5.321550060412406],[-73.184451379427571,5.3217120624871184],[-73.184399427391611,5.3217560618181849],[-73.184271556387159,5.3219127111281122],[-73.184616706295913,5.3219942661479012],[-73.184773576839063,5.3219735313787719],[-73.184915926928454,5.321954716662276],[-73.18515551891204,5.3217751445327028],[-73.185358210812751,5.3217754386109917],[-73.185432902206628,5.3217755474289667],[-73.185881097334743,5.3222039457808634],[-73.186148558409229,5.3223281466520547],[-73.186349923809871,5.3223271367133895],[-73.186601481273328,5.3223329310453602],[-73.187041773159251,5.3225316695262963],[-73.187449950254972,5.3225614901460716],[-73.187746991830181,5.3226784937428766],[-73.187854458116703,5.3229218071211042],[-73.187865337215499,5.3229464368539796],[-73.187874897908159,5.3229680862335371],[-73.187864144714467,5.323321151974949],[-73.188040828221631,5.3235814184730579],[-73.188343972596215,5.3236189354908658],[-73.18851409644833,5.3237554444835391],[-73.188571446215235,5.3239618865571829],[-73.188542413401592,5.3243189111142124],[-73.188370811963352,5.3249006097006655],[-73.188341987792455,5.3249983174437361],[-73.188258385016411,5.3253590804824915],[-73.188192481797557,5.3254314219478873],[-73.188221050560969,5.3255148475574874],[-73.188251326237662,5.3255995169294525],[-73.18813491079743,5.3257324861905833],[-73.188083158411018,5.3257915977293253],[-73.188117216636215,5.3257701695829356],[-73.188154917115696,5.3258623150190836],[-73.18819662137696,5.3259642414818522],[-73.188200465978696,5.3259736393972501],[-73.18831509536534,5.3260658306988171],[-73.188349457561401,5.326093468663923],[-73.188504459313322,5.3261893894540213],[-73.188733143419768,5.3263223470239875],[-73.18888601917439,5.3264112288204339],[-73.189023062364413,5.3265430010838761],[-73.189058665624884,5.3266806036521794],[-73.189112143810348,5.3268361809702078],[-73.189231321967895,5.3269440114821816],[-73.18926732362803,5.3269690009438557],[-73.189481686930264,5.3271178108635215],[-73.189620832735216,5.3271858050061391],[-73.189690377309034,5.3272197885876285],[-73.189698822842388,5.3272238778049585],[-73.189851364049161,5.3272977688022278],[-73.190018360059241,5.3273518351443236],[-73.190119710955855,5.3274117848512201],[-73.190119505011126,5.3275553202470771],[-73.190076986863403,5.3276084360057201],[-73.189999957232203,5.3277046706592568],[-73.189916224953777,5.3278361236633982],[-73.189820572161636,5.3279675631776877],[-73.189641358861593,5.3281108395687831],[-73.189533795448256,5.3282243232191311],[-73.189476862966785,5.3283025498480123],[-73.189438133662918,5.3283557600355129],[-73.189433825010951,5.3284356387189531],[-73.189432005682477,5.3284693875773641],[-73.189431862690299,5.3285695315838204],[-73.189431833012634,5.3285889992081552],[-73.189473409570155,5.3287206347746512],[-73.189616426057171,5.3288524169306646],[-73.189705878023801,5.3288884320806496],[-73.189751413396948,5.3289178623946363],[-73.189789341404946,5.3289423788129442],[-73.189890641040222,5.3290322372731076],[-73.190021841334897,5.3290802736609031],[-73.190170978607739,5.3291044051693461],[-73.190314175858475,5.3291105961022813],[-73.190523072181975,5.3290690366318927],[-73.190684252276355,5.3290214175295914],[-73.190851375090858,5.3289797969052861],[-73.191006521633653,5.328974034948943],[-73.191167602802579,5.3289922147441224],[-73.191316713095773,5.3290342922239757],[-73.191356085414952,5.329061155872802],[-73.191483620972292,5.3291481688780769],[-73.191555036135981,5.3292798476120362],[-73.191632427294621,5.3294055485524012],[-73.191654089264773,5.3295105461998968],[-73.191662052761501,5.3295491280149907],[-73.191703647305417,5.3296688106921994],[-73.191786964996425,5.3298244311776815],[-73.191890243140165,5.3299227837346441],[-73.191900171655561,5.3299322428038929],[-73.192013399898428,5.3300340811331024],[-73.192114768781494,5.3300820752527009],[-73.192263859289653,5.3301361146151471],[-73.192401040075879,5.3301781768065748],[-73.192532265551563,5.3302082654242504],[-73.192669456230362,5.3302443498220295],[-73.192698847873487,5.3302622948941325],[-73.192836372200759,5.3303462645935884],[-73.192925747725042,5.3304361050673004],[-73.192976045008436,5.3305288395594195],[-73.192997167385329,5.3305677847006416],[-73.19308645567537,5.3307174264931527],[-73.193122079620252,5.3308370893852883],[-73.193127327164405,5.3308455349186357],[-73.193211376903491,5.3309807650753562],[-73.193227594377959,5.3309929895599408],[-73.193330592832581,5.3310706397233432],[-73.193437958395009,5.3310947190711193],[-73.193551349415202,5.3310829190665947],[-73.193700499278577,5.3310950949877327],[-73.193843513966954,5.3312268771437479],[-73.193926832557224,5.3313824958306437],[-73.193926980046058,5.3313830893831433],[-73.193970618749006,5.3315591352709726],[-73.193980225307087,5.3315978834606623],[-73.194033702593288,5.3317534607786836],[-73.194051834724348,5.3318163944361654],[-73.19408713940993,5.3319389378567852],[-73.194122641946308,5.3321483135189398],[-73.194152226044366,5.3323217945402455],[-73.194152044381326,5.33244763667415],[-73.194152012005702,5.3324713185215868],[-73.194187549615663,5.3326567704186774],[-73.194288782701108,5.3327944755097212],[-73.194431856744757,5.332884392425842],[-73.194545138047658,5.3329503442080783],[-73.194607972779693,5.3329954613964672],[-73.194670318280544,5.3330402359431828],[-73.194729824621675,5.3331479729256861],[-73.194745417966601,5.3332664738937119],[-73.194753438120642,5.3333274299419973],[-73.194735277211237,5.3335128035980341],[-73.194731983893917,5.3335429102021692],[-73.194711089045484,5.3337340566064535],[-73.194669023256779,5.333943321651998],[-73.194567355798767,5.3341046528324796],[-73.194546388105266,5.334126609780248],[-73.194441859903861,5.3342360572732428],[-73.194292478015427,5.3343853564240886],[-73.194196866592108,5.3344868916816974],[-73.19418221123999,5.3345073980229856],[-73.194107182600362,5.3346123614962728],[-73.194103400051858,5.3346207845465754],[-73.194029365163033,5.3347856905321995],[-73.193957562391574,5.3349231366184267],[-73.193850281365371,5.3350864876762509],[-73.193831989154944,5.3351143450759348],[-73.193796000984605,5.3351484149923509],[-73.193718461437811,5.3352218311475452],[-73.193545175569341,5.3353950288824521],[-73.193538686061459,5.3354023160889792],[-73.19344954615957,5.3355025428330274],[-73.193387313973346,5.3356268489249192],[-73.193377743388112,5.3356459757061572],[-73.193329780744762,5.3358014091326806],[-73.19332955861222,5.3359569064110737],[-73.193329369754565,5.3360884799243458],[-73.193370957103923,5.3362141403952119],[-73.193490002161809,5.3364176506789684],[-73.193567407709679,5.33653139873],[-73.193686513022101,5.3366990314600988],[-73.193745988786304,5.3368306940062382],[-73.19379355572795,5.3369503748848199],[-73.193822593038192,5.3371206552189623],[-73.193856535250859,5.3371352907859269],[-73.194096266629344,5.3372386804456555],[-73.194180138302727,5.3373577219062547],[-73.194217491643883,5.337301732813633],[-73.194263142130239,5.3373091198449361],[-73.19436663521202,5.337325870617363],[-73.194497680823247,5.3374815576526791],[-73.194712144849575,5.3377210929789376],[-73.194819356627988,5.3378588079625029],[-73.19496240908785,5.3379666645548092],[-73.195147323190383,5.3380087950947077],[-73.195338315810602,5.3379731801430212],[-73.195577007572808,5.3379615627008485],[-73.195800183331755,5.3380225727084394],[-73.195928916786045,5.3380577649787631],[-73.196072030399819,5.338123755431857],[-73.196227117587341,5.3381598668092778],[-73.196253852633163,5.338156751557718],[-73.196430029821954,5.3381362317265841],[-73.196579147309762,5.3381723341108112],[-73.196668592081835,5.3382143252558061],[-73.196835532333921,5.3383102532404596],[-73.196906601258604,5.3383638465391883],[-73.19697858389452,5.3384181098327703],[-73.197074007359504,5.3384481570816762],[-73.197223150028321,5.3384722858921601],[-73.197354440255197,5.3384605209611564],[-73.197509528342039,5.3384966224460619],[-73.197610756031509,5.3386462885202661],[-73.197632849676211,5.3386913949168262],[-73.197691078080766,5.3388102592109838],[-73.19773869718307,5.3388940625358359],[-73.197743152424493,5.3389955438341472],[-73.19777350634223,5.3389965079073463],[-73.197878042637512,5.3389998327009698],[-73.198080912603984,5.3390061099688833],[-73.198265937323129,5.3389704887219525],[-73.198403181961226,5.3389706838747992],[-73.198525133627982,5.3389848320092206],[-73.198611991050484,5.3389949080134542],[-73.198626624818814,5.3390006744663925],[-73.198749145756437,5.3390489293894561],[-73.198898274036083,5.339085029974985],[-73.198959802952515,5.3390851190078701],[-73.199011646170504,5.3390851918529911],[-73.199113131066099,5.3390494500968808],[-73.199262417626414,5.3389719150466952],[-73.199429604292789,5.3388944024795517],[-73.199553053330703,5.3388007389877687],[-73.19959926229609,5.3387529049474827],[-73.199716389100047,5.3386316628458115],[-73.199823980392352,5.33850024311662],[-73.199897044912632,5.338439387792377],[-73.19996735570885,5.338380832034642],[-73.200104716359533,5.3382972931104709],[-73.200283906277207,5.3381719590935139],[-73.2004179052621,5.3380924671185355],[-73.200475004118118,5.338058595952357],[-73.200563159262344,5.3380373081001746],[-73.200671978129265,5.3380110281113327],[-73.200868860409514,5.3380352342635398],[-73.201000022033327,5.3381131731093152],[-73.201190802413578,5.3382210944528099],[-73.20129211463933,5.3383109502150674],[-73.201429271143923,5.3383709574785971],[-73.201462343712137,5.3383689331046575],[-73.201524748568261,5.3383651091873325],[-73.201650142839753,5.3383054859343018],[-73.201739772872202,5.3382159008680103],[-73.201883081638869,5.3381443319202528],[-73.202044252740052,5.338096722710465],[-73.202169630823789,5.3380490496488111],[-73.202300928245222,5.3380312997296029],[-73.202450170738757,5.337977678551904],[-73.202533283384298,5.3379327070537057],[-73.202593489397998,5.3379001327098781],[-73.202766645764029,5.337822628236605],[-73.203011351292787,5.3377751377373119],[-73.203012456559577,5.3377751395359478],[-73.203106825119846,5.3377752735349331],[-73.203244059865426,5.3377754686878216],[-73.203315726839264,5.3377337077693046],[-73.203392606283728,5.3377241776535707],[-73.203458958264264,5.3377159632460156],[-73.203490178229117,5.3377160091114328],[-73.203631995020487,5.337716210559563],[-73.203763250173836,5.3377283586017379],[-73.203914359659905,5.3377326708509809],[-73.20398401844767,5.3377346574533844],[-73.204073531568213,5.3377288001688639],[-73.204169008992551,5.3377289359665463],[-73.204240714637251,5.3376512876017195],[-73.204330357260119,5.3375557265404296],[-73.204378163421438,5.3375079446607954],[-73.204437875707356,5.3374721426501539],[-73.204509502211693,5.3374602931828736],[-73.204587090321922,5.337448440118302],[-73.204658705135103,5.3374365798591814],[-73.204772105148493,5.3374187930677532],[-73.204861668631054,5.3373770582295634],[-73.204945302883402,5.3373054110408162],[-73.205011046922266,5.3372277554814396],[-73.205118612134186,5.3371202487254248],[-73.205173556214618,5.3370836490161331],[-73.205208198999173,5.3370605724124092],[-73.205315612225661,5.3370547385103215],[-73.205416938840642,5.3371326323899861],[-73.2055241910885,5.3372404458148317],[-73.205655334725861,5.3373303348519912],[-73.20584626079625,5.3373425710277225],[-73.20606712439826,5.3372830799750828],[-73.206317875169759,5.3371817605547234],[-73.206420837651478,5.3371462022603504],[-73.206473091859664,5.3371281546655123],[-73.206586542235073,5.337074492119056],[-73.206753649761083,5.3370508021776777],[-73.206974486383388,5.3370092525998665],[-73.207183333244188,5.3370035634885902],[-73.207281642633689,5.3369905664863726],[-73.207362376572405,5.3369798915336757],[-73.20754727358775,5.3370339785601857],[-73.207732121140452,5.3371239548315739],[-73.207793954027693,5.3371597568422198],[-73.207928865824442,5.3372378701564767],[-73.208024250618621,5.3373037949590554],[-73.208107775153678,5.3373098968591703],[-73.208298711116583,5.3373161417514634],[-73.208417963018519,5.3373761238339732],[-73.208494323554135,5.3373762317526294],[-73.208543273653106,5.3373763001010959],[-73.208722291800314,5.3373705687216795],[-73.20888339455297,5.3373707962501449],[-73.209008610758758,5.3374367606229045],[-73.209121756263983,5.3375924224772087],[-73.209246737746696,5.3378258505075022],[-73.209401575822028,5.338041381129746],[-73.20945469607733,5.338101887516971],[-73.209490936057819,5.3381431708955214],[-73.209516694439856,5.3381690605785819],[-73.209604151710209,5.3382569675099392],[-73.209735288153013,5.3383528415352961]]]},"properties":{"OBJECTID_1":1,"OBJECTID":183,"COD_AH":3,"nom_ah":"Orinoco","COD_ZH":35,"nom_zh":"Meta","COD_SZH":3508,"nom_szh":"Río Lengupá","ruleid":4,"SHAPE_Leng":2.1510090095700001,"Shape_Length":0.24341480327231974,"Shape_Area":0.0021338667929072562}}]}