{"type":"FeatureCollection","features":[{"type":"Feature","id":1,"geometry":{"type":"MultiLineString","coordinates":[[[-73.204305158486775,5.3375825888166721],[-73.203498406239291,5.3376610693585436],[-73.203441099493418,5.3377181746009352]],[[-73.20249154101991,5.3379552942275987],[-73.202031480644067,5.3379958570985426],[-73.201881877463009,5.3381449333520683]],[[-73.201699355562198,5.3382562979488046],[-73.2013963431842,5.3383565513329474]],[[-73.20005235156674,5.3383291399963637],[-73.200000732539394,5.3383289887247649],[-73.199774874029231,5.3384413531617572]]]},"properties":{"OBJECTID":1,"arcid":6,"grid_code":1,"from_node":11,"to_node":8,"Shape_Length":242.42983157287259}},{"type":"Feature","id":2,"geometry":{"type":"MultiLineString","coordinates":[[[-73.208912421683308,5.3372247711623118],[-73.208123396815083,5.3371094433899158],[-73.208010960304406,5.3369960885535175],[-73.207411769686857,5.3369943405353739]],[[-73.207256523503844,5.3369938875405598],[-73.206883314228008,5.3369927983879988],[-73.20662892083034,5.3370684845727165]],[[-73.206548929788227,5.337092283274651],[-73.205754683129342,5.3373285835131705],[-73.205652343426948,5.3373282846045376]]]},"properties":{"OBJECTID":2,"arcid":9,"grid_code":1,"from_node":12,"to_node":11,"Shape_Length":346.45576492092243}},{"type":"Feature","id":3,"geometry":{"type":"MultiLineString","coordinates":[[[-73.199774874029231,5.3384413531617572],[-73.199400123422507,5.3389080707176815]],[[-73.199199106939147,5.3390047970068206],[-73.198632875165899,5.3390031364102972]],[[-73.197289359421561,5.3384663533003085],[-73.197069191061217,5.338207364400148],[-73.195942540857814,5.3378649778970813],[-73.195378720691309,5.33786332173195],[-73.194928656459496,5.337522921102412],[-73.194592017838929,5.336956801525635]]]},"properties":{"OBJECTID":3,"arcid":10,"grid_code":1,"from_node":8,"to_node":14,"Shape_Length":495.04450974444671}},{"type":"Feature","id":4,"geometry":{"type":"LineString","coordinates":[[-73.20507857965184,5.3371602593826957],[-73.205079410658684,5.336874504078974]]},"properties":{"OBJECTID":4,"arcid":11,"grid_code":1,"from_node":11,"to_node":15,"Shape_Length":31.602899998426437}},{"type":"Feature","id":5,"geometry":{"type":"LineString","coordinates":[[-73.205305268187672,5.3367621371657048],[-73.205079410658684,5.336874504078974]]},"properties":{"OBJECTID":5,"arcid":12,"grid_code":1,"from_node":16,"to_node":15,"Shape_Length":27.950849718747371}},{"type":"Feature","id":6,"geometry":{"type":"LineString","coordinates":[[-73.205305268187672,5.3367621371657048],[-73.205192832409637,5.3366487820075212]]},"properties":{"OBJECTID":6,"arcid":13,"grid_code":1,"from_node":16,"to_node":17,"Shape_Length":17.677669529663689}},{"type":"Feature","id":7,"geometry":{"type":"LineString","coordinates":[[-73.205079410658684,5.336874504078974],[-73.205192832409637,5.3366487820075212]]},"properties":{"OBJECTID":7,"arcid":14,"grid_code":1,"from_node":15,"to_node":17,"Shape_Length":27.950849718747371}},{"type":"Feature","id":8,"geometry":{"type":"LineString","coordinates":[[-73.205305268187672,5.3367621371657048],[-73.205418689835511,5.3365364150169672]]},"properties":{"OBJECTID":8,"arcid":15,"grid_code":1,"from_node":16,"to_node":18,"Shape_Length":27.950849718747371}},{"type":"Feature","id":9,"geometry":{"type":"LineString","coordinates":[[-73.205418689835511,5.3365364150169672],[-73.205192832409637,5.3366487820075212]]},"properties":{"OBJECTID":9,"arcid":16,"grid_code":1,"from_node":18,"to_node":17,"Shape_Length":27.950849718747371}},{"type":"Feature","id":10,"geometry":{"type":"LineString","coordinates":[[-73.205418689835511,5.3365364150169672],[-73.205419018430916,5.3364233892494806]]},"properties":{"OBJECTID":10,"arcid":17,"grid_code":1,"from_node":18,"to_node":19,"Shape_Length":12.5}},{"type":"Feature","id":11,"geometry":{"type":"LineString","coordinates":[[-73.205532111379696,5.3363106928177624],[-73.205531782811974,5.3364237185926973],[-73.205419018430916,5.3364233892494806]]},"properties":{"OBJECTID":11,"arcid":19,"grid_code":1,"from_node":21,"to_node":19,"Shape_Length":25}},{"type":"Feature","id":12,"geometry":{"type":"LineString","coordinates":[[-73.205532111379696,5.3363106928177624],[-73.205419347019259,5.3363103634815596]]},"properties":{"OBJECTID":12,"arcid":20,"grid_code":1,"from_node":21,"to_node":22,"Shape_Length":12.5}},{"type":"Feature","id":13,"geometry":{"type":"LineString","coordinates":[[-73.205419018430916,5.3364233892494806],[-73.205419347019259,5.3363103634815596]]},"properties":{"OBJECTID":13,"arcid":21,"grid_code":1,"from_node":19,"to_node":22,"Shape_Length":12.5}},{"type":"Feature","id":14,"geometry":{"type":"LineString","coordinates":[[-73.206323104111434,5.3357478684658295],[-73.205532111379696,5.3363106928177624]]},"properties":{"OBJECTID":14,"arcid":27,"grid_code":1,"from_node":-29,"to_node":21,"Shape_Length":107.52906583803284}},{"type":"Feature","id":15,"geometry":{"type":"LineString","coordinates":[[-73.198318175230085,5.335272345688856],[-73.197978894407228,5.3356104297626343],[-73.197414745654569,5.335721801433988],[-73.197075464174574,5.3360598847529737],[-73.19639822109545,5.3362839496218593],[-73.196172032962792,5.3365093379626725],[-73.195495450183969,5.3365073512583248],[-73.195156828411442,5.3366193827540283],[-73.19481787601697,5.3368444391258087],[-73.194817545454853,5.3369574642302346],[-73.194592017838929,5.336956801525635]]},"properties":{"OBJECTID":15,"arcid":35,"grid_code":1,"from_node":-34,"to_node":14,"Shape_Length":481.31390335683341}},{"type":"Feature","id":16,"geometry":{"type":"LineString","coordinates":[[-73.194592017838929,5.336956801525635],[-73.193579790031563,5.3360496181053252],[-73.193580451488671,5.3358235680443613],[-73.194485204186535,5.3349220185771538],[-73.194486856596157,5.3343568931173699]]},"properties":{"OBJECTID":16,"arcid":36,"grid_code":1,"from_node":14,"to_node":35,"Shape_Length":379.44128847221322}},{"type":"Feature","id":17,"geometry":{"type":"LineString","coordinates":[[-73.194486856596157,5.3343568931173699],[-73.194374093280146,5.3343565618757181]]},"properties":{"OBJECTID":17,"arcid":37,"grid_code":1,"from_node":35,"to_node":36,"Shape_Length":12.5}},{"type":"Feature","id":18,"geometry":{"type":"MultiLineString","coordinates":[[[-73.194374093280146,5.3343565618757181],[-73.194009713838398,5.3348233070289988]],[[-73.193628033145544,5.3353122136961231],[-73.193581774317593,5.3353714679172137],[-73.193555840445327,5.3353843697836698]]]},"properties":{"OBJECTID":18,"arcid":38,"grid_code":1,"from_node":36,"to_node":-33,"Shape_Length":77.074833766734983}},{"type":"Feature","id":19,"geometry":{"type":"LineString","coordinates":[[-73.194486856596157,5.3343568931173699],[-73.194487187056779,5.3342438680241084]]},"properties":{"OBJECTID":19,"arcid":39,"grid_code":1,"from_node":35,"to_node":38,"Shape_Length":12.5}},{"type":"Feature","id":20,"geometry":{"type":"LineString","coordinates":[[-73.194487187056779,5.3342438680241084],[-73.194434200936541,5.3342437123835209]]},"properties":{"OBJECTID":20,"arcid":40,"grid_code":1,"from_node":38,"to_node":39,"Shape_Length":5.8735999995842576}},{"type":"Feature","id":21,"geometry":{"type":"LineString","coordinates":[[-73.194374093280146,5.3343565618757181],[-73.194374248046714,5.3343036317757972]]},"properties":{"OBJECTID":21,"arcid":41,"grid_code":1,"from_node":36,"to_node":39,"Shape_Length":5.8538000006228685}},{"type":"Feature","id":22,"geometry":{"type":"LineString","coordinates":[[-73.194487187056779,5.3342438680241084],[-73.194487349151714,5.334188426955202]]},"properties":{"OBJECTID":22,"arcid":42,"grid_code":1,"from_node":38,"to_node":40,"Shape_Length":6.1315000001341105}},{"type":"Feature","id":23,"geometry":{"type":"MultiLineString","coordinates":[[[-73.220019946963532,5.3341941252816421],[-73.219407396960122,5.334542617346151],[-73.218502342981736,5.335557242561384],[-73.218276812938711,5.335556588719518],[-73.217937539154534,5.3358946874410469],[-73.217866541112642,5.336106134099043]],[[-73.217688579068422,5.3365935900963839],[-73.21725768468184,5.33702298994021],[-73.21725700412965,5.3372586031719855]],[[-73.217069759171437,5.3376610676849925],[-73.216917103217753,5.3378131935331323],[-73.216014327210303,5.3380366270786839],[-73.215675377616748,5.3382616972560681],[-73.214096663431107,5.3382571090496969],[-73.213983571044196,5.3383698074579717],[-73.213413860232549,5.3384719204037809]],[[-73.212880431136313,5.338567529403389],[-73.212742498815686,5.3385922517212823],[-73.212403220792609,5.3389303457783077],[-73.211613208848789,5.3391540999766267],[-73.211500771235833,5.3390407454461037],[-73.210598649600982,5.3390381175984718],[-73.2096994798639,5.3380182541943269],[-73.209700135663596,5.3377922021377495],[-73.208912421683308,5.3372247711623118]]]},"properties":{"OBJECTID":23,"arcid":44,"grid_code":1,"from_node":41,"to_node":12,"Shape_Length":1413.8481750497579}},{"type":"Feature","id":24,"geometry":{"type":"LineString","coordinates":[[-73.220388320656994,5.333944544492037],[-73.220311470755902,5.3338670698724711]]},"properties":{"OBJECTID":24,"arcid":47,"grid_code":1,"from_node":42,"to_node":44,"Shape_Length":12.082333569681458}},{"type":"Feature","id":25,"geometry":{"type":"LineString","coordinates":[[-73.220254253606029,5.3339809463957106],[-73.220311470755902,5.3338670698724711]]},"properties":{"OBJECTID":25,"arcid":48,"grid_code":1,"from_node":41,"to_node":44,"Shape_Length":14.100868272231697}},{"type":"Feature","id":26,"geometry":{"type":"LineString","coordinates":[[-73.220553023096173,5.3338517553842753],[-73.220650090925119,5.3337550224544401]]},"properties":{"OBJECTID":26,"arcid":49,"grid_code":1,"from_node":43,"to_node":45,"Shape_Length":15.173097309125698}},{"type":"Feature","id":27,"geometry":{"type":"LineString","coordinates":[[-73.220529019050204,5.3338596765025379],[-73.220424561275578,5.3337543696204479]]},"properties":{"OBJECTID":27,"arcid":50,"grid_code":1,"from_node":43,"to_node":46,"Shape_Length":16.422837835026151}},{"type":"Feature","id":28,"geometry":{"type":"LineString","coordinates":[[-73.220311470755902,5.3338670698724711],[-73.220424561275578,5.3337543696204479]]},"properties":{"OBJECTID":28,"arcid":51,"grid_code":1,"from_node":44,"to_node":46,"Shape_Length":17.677669529663689}},{"type":"Feature","id":29,"geometry":{"type":"LineString","coordinates":[[-73.220650090925119,5.3337550224544401],[-73.220537651754015,5.3336416693334199]]},"properties":{"OBJECTID":29,"arcid":52,"grid_code":1,"from_node":45,"to_node":47,"Shape_Length":17.677669529663689}},{"type":"Feature","id":30,"geometry":{"type":"LineString","coordinates":[[-73.220424561275578,5.3337543696204479],[-73.220537651754015,5.3336416693334199]]},"properties":{"OBJECTID":30,"arcid":53,"grid_code":1,"from_node":46,"to_node":47,"Shape_Length":17.677669529663689}},{"type":"Feature","id":31,"geometry":{"type":"LineString","coordinates":[[-73.208912421683308,5.3372247711623118],[-73.210382951489237,5.3356466782565111],[-73.210721245151106,5.3356476633490226],[-73.211173613373006,5.3351968720012293],[-73.211965583439707,5.3342949596101068],[-73.212192748259938,5.3337304846270861],[-73.21219438410121,5.3331653536305632],[-73.212759840351907,5.3326018617441981],[-73.212985368635216,5.3326025172480289]]},"properties":{"OBJECTID":31,"arcid":54,"grid_code":1,"from_node":12,"to_node":48,"Shape_Length":723.10257319712264}},{"type":"Feature","id":32,"geometry":{"type":"LineString","coordinates":[[-73.212985368635216,5.3326025172480289],[-73.212986349517394,5.3322634384916681]]},"properties":{"OBJECTID":32,"arcid":55,"grid_code":1,"from_node":48,"to_node":-49,"Shape_Length":37.5}},{"type":"Feature","id":33,"geometry":{"type":"LineString","coordinates":[[-73.194433048823612,5.3328850868940672],[-73.194266286752963,5.3326608543805527],[-73.194267277917518,5.3323217791222417],[-73.194154845381235,5.3322084228864064]]},"properties":{"OBJECTID":33,"arcid":56,"grid_code":1,"from_node":40,"to_node":50,"Shape_Length":86.108389529844828}},{"type":"Feature","id":34,"geometry":{"type":"LineString","coordinates":[[-73.194154845381235,5.3322084228864064],[-73.194132881873458,5.3322083583841522]]},"properties":{"OBJECTID":34,"arcid":57,"grid_code":1,"from_node":50,"to_node":51,"Shape_Length":2.4346999991685152}},{"type":"Feature","id":35,"geometry":{"type":"LineString","coordinates":[[-73.194154845381235,5.3322084228864064],[-73.194155175768714,5.3320953978060563]]},"properties":{"OBJECTID":35,"arcid":59,"grid_code":1,"from_node":50,"to_node":52,"Shape_Length":12.5}},{"type":"Feature","id":36,"geometry":{"type":"LineString","coordinates":[[-73.194155175768714,5.3320953978060563],[-73.194113648355611,5.3320952758505999]]},"properties":{"OBJECTID":36,"arcid":60,"grid_code":1,"from_node":52,"to_node":51,"Shape_Length":4.6033999994397163}},{"type":"Feature","id":37,"geometry":{"type":"LineString","coordinates":[[-73.194155175768714,5.3320953978060563],[-73.194099345693601,5.3320109218404692]]},"properties":{"OBJECTID":37,"arcid":62,"grid_code":1,"from_node":52,"to_node":54,"Shape_Length":11.206497124484285}},{"type":"Feature","id":38,"geometry":{"type":"LineString","coordinates":[[-73.193753173047483,5.3311436311434273],[-73.193819860866213,5.3310771787046276]]},"properties":{"OBJECTID":38,"arcid":63,"grid_code":1,"from_node":54,"to_node":55,"Shape_Length":10.424026746208853}},{"type":"Feature","id":39,"geometry":{"type":"LineString","coordinates":[[-73.193605032775082,5.3310873015283997],[-73.193594335521652,5.3310765163622458]]},"properties":{"OBJECTID":39,"arcid":64,"grid_code":1,"from_node":54,"to_node":56,"Shape_Length":1.6819241893573222}},{"type":"Feature","id":40,"geometry":{"type":"LineString","coordinates":[[-73.193819860866213,5.3310771787046276],[-73.193707428589207,5.3309638224873019]]},"properties":{"OBJECTID":40,"arcid":65,"grid_code":1,"from_node":55,"to_node":57,"Shape_Length":17.677669529663689}},{"type":"Feature","id":41,"geometry":{"type":"LineString","coordinates":[[-73.193594335521652,5.3310765163622458],[-73.193707428589207,5.3309638224873019]]},"properties":{"OBJECTID":41,"arcid":66,"grid_code":1,"from_node":56,"to_node":57,"Shape_Length":17.677669529663689}},{"type":"Feature","id":42,"geometry":{"type":"LineString","coordinates":[[-73.193594335521652,5.3310765163622458],[-73.193481903300054,5.3309631601177463]]},"properties":{"OBJECTID":42,"arcid":67,"grid_code":1,"from_node":56,"to_node":58,"Shape_Length":17.677669529663689}},{"type":"Feature","id":43,"geometry":{"type":"LineString","coordinates":[[-73.193707428589207,5.3309638224873019],[-73.193594996353411,5.3308504662630147]]},"properties":{"OBJECTID":43,"arcid":68,"grid_code":1,"from_node":57,"to_node":59,"Shape_Length":17.677669529663689}},{"type":"Feature","id":44,"geometry":{"type":"LineString","coordinates":[[-73.193481903300054,5.3309631601177463],[-73.193594996353411,5.3308504662630147]]},"properties":{"OBJECTID":44,"arcid":69,"grid_code":1,"from_node":58,"to_node":59,"Shape_Length":17.677669529663689}},{"type":"Feature","id":45,"geometry":{"type":"MultiLineString","coordinates":[[[-73.22471807439085,5.3308280579379987],[-73.223813034017795,5.3318426958246494],[-73.223304304282664,5.332095817361675]],[[-73.221938699028001,5.3327278411916437],[-73.221604706413785,5.3329940755014533]],[[-73.221330822125083,5.3332123960235283],[-73.220650090925119,5.3337550224544401]]]},"properties":{"OBJECTID":45,"arcid":71,"grid_code":1,"from_node":61,"to_node":45,"Shape_Length":357.19408534257695}},{"type":"Feature","id":46,"geometry":{"type":"LineString","coordinates":[[-73.193594996353411,5.3308504662630147],[-73.193369801566078,5.3307367788301434]]},"properties":{"OBJECTID":46,"arcid":72,"grid_code":1,"from_node":59,"to_node":62,"Shape_Length":27.950849718747371}},{"type":"Feature","id":47,"geometry":{"type":"LineString","coordinates":[[-73.193481903300054,5.3309631601177463],[-73.193369801566078,5.3307367788301434]]},"properties":{"OBJECTID":47,"arcid":73,"grid_code":1,"from_node":58,"to_node":62,"Shape_Length":27.950849718747371}},{"type":"Feature","id":48,"geometry":{"type":"LineString","coordinates":[[-73.220537651754015,5.3336416693334199],[-73.220200660179003,5.3331885832320545],[-73.220202614177936,5.3325104230516036],[-73.219303104043831,5.3316035980182157],[-73.219304732727707,5.3310384647835445],[-73.219532215190483,5.3303609577171809]]},"properties":{"OBJECTID":48,"arcid":78,"grid_code":1,"from_node":47,"to_node":68,"Shape_Length":420.47829774151899}},{"type":"Feature","id":49,"geometry":{"type":"LineString","coordinates":[[-73.205419347019259,5.3363103634815596],[-73.20553408263774,5.3356325381590199],[-73.207004285060904,5.3341674807694313],[-73.20700723823424,5.3331502478807957],[-73.207120658258233,5.3329245249595898],[-73.208703940935493,5.3313467626788835],[-73.210060051878784,5.3303334677731993],[-73.210061033945664,5.3299943895360578],[-73.21040063353,5.3295432693589664]]},"properties":{"OBJECTID":49,"arcid":79,"grid_code":1,"from_node":22,"to_node":-69,"Shape_Length":981.28245864839471}},{"type":"Feature","id":50,"geometry":{"type":"LineString","coordinates":[[-73.22471807439085,5.3308280579379987],[-73.22370611757799,5.3298078855543389],[-73.223707741685644,5.3292427509293523]]},"properties":{"OBJECTID":50,"arcid":80,"grid_code":1,"from_node":61,"to_node":-70,"Shape_Length":221.5990257669732}},{"type":"Feature","id":51,"geometry":{"type":"LineString","coordinates":[[-73.219532215190483,5.3303609577171809],[-73.21953319206709,5.3300218777215944],[-73.219308315215827,5.3297951716290672],[-73.219309617728626,5.3293430650144185],[-73.219084741150837,5.3291163589454786]]},"properties":{"OBJECTID":51,"arcid":81,"grid_code":1,"from_node":68,"to_node":-71,"Shape_Length":158.21067811865476}},{"type":"Feature","id":52,"geometry":{"type":"MultiLineString","coordinates":[[[-73.226773836788084,5.3291582893850595],[-73.226661868250432,5.3292921797891966]],[[-73.225646542417422,5.3300136153280535],[-73.225396609234778,5.3301518482471044],[-73.225283477007338,5.3302871291936906]],[[-73.225208321027111,5.3303769992511905],[-73.224830838942097,5.3308283833998757],[-73.22471807439085,5.3308280579379987]]]},"properties":{"OBJECTID":52,"arcid":82,"grid_code":1,"from_node":73,"to_node":61,"Shape_Length":148.12351515738544}},{"type":"Feature","id":53,"geometry":{"type":"LineString","coordinates":[[-73.199774874029231,5.3384413531617572],[-73.199437570280267,5.3381012853634564],[-73.199440208381517,5.3371970822392578],[-73.20000567727304,5.3366336073293388],[-73.200119430049639,5.3362948613667616],[-73.201024177358477,5.3353932992809865],[-73.201139575545852,5.3344894253151152],[-73.201705040098545,5.3339259474316121],[-73.202156423948978,5.3338142412163156],[-73.202382609317851,5.333588849580436],[-73.202496030881065,5.3333631281130813],[-73.20249866215137,5.3324589233238644],[-73.202724846774743,5.3322335313428368],[-73.20351517707617,5.3318967609690953],[-73.203516820286467,5.3313316326347682],[-73.204082936501365,5.3305420993892207],[-73.204084578772736,5.3299769708533056],[-73.204310761799874,5.3297515777694144],[-73.204312075268547,5.3292994748732339],[-73.204538586203881,5.3289610558492271],[-73.20453957104408,5.3286219786265123],[-73.204765753299256,5.3283965851424879]]},"properties":{"OBJECTID":53,"arcid":83,"grid_code":1,"from_node":8,"to_node":-74,"Shape_Length":1392.7443996096833}},{"type":"Feature","id":54,"geometry":{"type":"MultiLineString","coordinates":[[[-73.193369801566078,5.3307367788301434],[-73.1924700151595,5.329942953604264],[-73.192131728027107,5.3299419595284032],[-73.191641024106545,5.329447219747923]],[[-73.191344984434153,5.3290535818391094],[-73.191345368219999,5.3289224150679404],[-73.190035990749124,5.3276596533821508]],[[-73.189454776589372,5.3270991298520629],[-73.189077441516204,5.3267352269735628]]]},"properties":{"OBJECTID":54,"arcid":102,"grid_code":1,"from_node":62,"to_node":89,"Shape_Length":521.50612202093589}},{"type":"Feature","id":55,"geometry":{"type":"LineString","coordinates":[[-73.226964154589879,5.328868399148055],[-73.226867087165218,5.328573695811289],[-73.226417327163219,5.3281202874968114],[-73.226420245041169,5.3271030436068925],[-73.227325596824898,5.3259753708318796]]},"properties":{"OBJECTID":55,"arcid":104,"grid_code":1,"from_node":73,"to_node":-92,"Shape_Length":377.6109757342781}},{"type":"Feature","id":56,"geometry":{"type":"LineString","coordinates":[[-73.228874864264682,5.3271030859613573],[-73.228674878349167,5.3273355926324548],[-73.228674869275565,5.3273387601077786]]},"properties":{"OBJECTID":56,"arcid":105,"grid_code":1,"from_node":93,"to_node":73,"Shape_Length":34.300632519059526}},{"type":"Feature","id":57,"geometry":{"type":"LineString","coordinates":[[-73.18864017544702,5.3262682951516407],[-73.188422164907365,5.3259751466766794],[-73.188424813078129,5.3250709487149539],[-73.188325224151995,5.3250706556962184]]},"properties":{"OBJECTID":57,"arcid":110,"grid_code":1,"from_node":89,"to_node":99,"Shape_Length":151.47679999861867}},{"type":"Feature","id":58,"geometry":{"type":"MultiLineString","coordinates":[[[-73.188196671738169,5.3259643650157429],[-73.188197560589472,5.3256609279753695]],[[-73.188198184068739,5.3254480734726997],[-73.188198251392507,5.325425088763331]]]},"properties":{"OBJECTID":58,"arcid":111,"grid_code":1,"from_node":-91,"to_node":99,"Shape_Length":36.100700000301003}},{"type":"Feature","id":59,"geometry":{"type":"LineString","coordinates":[[-73.207708727369166,5.324562249461442],[-73.207482875187594,5.3246746189503114],[-73.206580776514087,5.3246719922677057],[-73.20613103822717,5.3242185750081648],[-73.205116178753897,5.3242156179226789]]},"properties":{"OBJECTID":59,"arcid":128,"grid_code":1,"from_node":102,"to_node":112,"Shape_Length":311.1615278374021}},{"type":"Feature","id":60,"geometry":{"type":"LineString","coordinates":[[-73.205116178753897,5.3242156179226789],[-73.20455204018495,5.3243270001339482],[-73.204213097725386,5.3245520652103648],[-73.203649287127917,5.3245504207332299],[-73.203310344357035,5.3247754851585363],[-73.202972058023519,5.3247744979970522],[-73.201616941812702,5.3254487009294484],[-73.201390760238596,5.3256740932525783],[-73.200939382882609,5.3257858008964991],[-73.200713200980559,5.3260111928429454],[-73.200149390141775,5.3260095447121962],[-73.198566440565557,5.3274742570925966],[-73.198565781971652,5.3277003078383842],[-73.197661047344724,5.3286018691161336],[-73.197435522423632,5.3286012084877505],[-73.19675696956196,5.3292773776370854],[-73.196756310082336,5.3295034281435401],[-73.196417032929403,5.3298415121985112],[-73.196078745112956,5.3298405203112802],[-73.194835055461255,5.3309671330962773],[-73.193819860866213,5.3310771787046276]]},"properties":{"OBJECTID":60,"arcid":129,"grid_code":1,"from_node":112,"to_node":55,"Shape_Length":1557.181842812136}},{"type":"Feature","id":61,"geometry":{"type":"LineString","coordinates":[[-73.192937249534396,5.3244060526815851],[-73.192824157978677,5.3245187467974491],[-73.191583782773066,5.324515105356479],[-73.191134059254054,5.3240616808982617],[-73.190006447285242,5.3240583677901805],[-73.189780263598948,5.3242837545918613],[-73.18854556780505,5.3242801238809561]]},"properties":{"OBJECTID":61,"arcid":135,"grid_code":1,"from_node":-104,"to_node":109,"Shape_Length":523.11438670749976}},{"type":"Feature","id":62,"geometry":{"type":"LineString","coordinates":[[-73.205116178753897,5.3242156179226789],[-73.205229596616419,5.3239898949681814]]},"properties":{"OBJECTID":62,"arcid":139,"grid_code":1,"from_node":112,"to_node":-118,"Shape_Length":27.950849718747371}},{"type":"Feature","id":63,"geometry":{"type":"LineString","coordinates":[[-73.188769383255618,5.32292447324701],[-73.187854447144659,5.3229217822259436]]},"properties":{"OBJECTID":63,"arcid":145,"grid_code":1,"from_node":-121,"to_node":122,"Shape_Length":101.42439999990165}},{"type":"Feature","id":64,"geometry":{"type":"LineString","coordinates":[[-73.217412502463063,5.3224428941826432],[-73.217186326168203,5.3226682946405557],[-73.217184698122097,5.323233427374114],[-73.216957870009011,5.3236848806788375],[-73.216839894882398,5.3254929785230241],[-73.217063792051093,5.3260587643061186],[-73.217062162850127,5.326623896939787],[-73.216722569217723,5.3270750230073736],[-73.216719961412963,5.327979235017529],[-73.216832398965863,5.3280925882773902],[-73.216492477959818,5.328656740354214],[-73.216604915538952,5.3287700936806308],[-73.216602958972558,5.3294482526099713],[-73.216376452891893,5.3297866782353722],[-73.216375474327279,5.3301257576484486],[-73.215922787265484,5.3306895818572322],[-73.215245224154387,5.3310266982247798],[-73.214228061736094,5.3318149367337622],[-73.213888789219098,5.3321530332043832],[-73.213888135648418,5.3323790858216595],[-73.213548535715972,5.3328302082180716],[-73.213323007279953,5.3328295528928473],[-73.212985368635216,5.3326025172480289]]},"properties":{"OBJECTID":64,"arcid":146,"grid_code":1,"from_node":-123,"to_node":48,"Shape_Length":1429.2894013415503}},{"type":"Feature","id":65,"geometry":{"type":"LineString","coordinates":[[-73.223503313484784,5.3218953495576411],[-73.223502340280291,5.3222344303768221],[-73.223276165560804,5.3224598338419442],[-73.223274867636576,5.3229119415357644],[-73.223162104623995,5.3229116162709795],[-73.223160481958587,5.3234767508437795],[-73.222595043131946,5.3240402584252564],[-73.222594393741218,5.3242663121775449],[-73.22202797905824,5.3251688993259192],[-73.22134944904677,5.3258451060001146],[-73.221346198430822,5.3269753739103516],[-73.221458311906275,5.3272017533460216],[-73.221118720216538,5.3276528828004972],[-73.221004005144707,5.3283307174365069],[-73.220212380391814,5.3291196219149173],[-73.219871158787413,5.3301358834349841],[-73.219532215190483,5.3303609577171809]]},"properties":{"OBJECTID":65,"arcid":147,"grid_code":1,"from_node":125,"to_node":68,"Shape_Length":1114.1183392910705}},{"type":"Feature","id":66,"geometry":{"type":"MultiLineString","coordinates":[[[-73.230200654537583,5.3252514817935745],[-73.230347404648498,5.3251052299631869]],[[-73.232918859970937,5.3222464454705021],[-73.233087857857413,5.3220359404363453],[-73.23365232031415,5.3218115020793917],[-73.23377185318509,5.3218118447641611]]]},"properties":{"OBJECTID":66,"arcid":148,"grid_code":1,"from_node":93,"to_node":126,"Shape_Length":133.38645538351429}},{"type":"Feature","id":67,"geometry":{"type":"LineString","coordinates":[[-73.216067168909674,5.319726341494766],[-73.216065540747408,5.3202914739361304],[-73.214821247108816,5.3216441990347949],[-73.214706528835734,5.3223220306824377],[-73.214027997672062,5.3229982277078589],[-73.213690036564373,5.3228842204286302],[-73.213125898200559,5.3229956114321855],[-73.211993701980433,5.3245747063462794],[-73.211879305882988,5.3251395099716898],[-73.211201095422851,5.3257026755775287],[-73.210862807114424,5.3257016925790808],[-73.210410775056076,5.3260394599752923],[-73.209621435681058,5.3260371648658262],[-73.209058931132049,5.3255834207519843],[-73.20838301024898,5.3253554002758685],[-73.208045704902545,5.3250153378770246],[-73.208046687087702,5.3246762599567017],[-73.207708727369166,5.324562249461442]]},"properties":{"OBJECTID":67,"arcid":154,"grid_code":1,"from_node":131,"to_node":102,"Shape_Length":1404.4334912879958}},{"type":"Feature","id":68,"geometry":{"type":"LineString","coordinates":[[-73.216180256496159,5.3196136413666002],[-73.216179930905327,5.3197266678631463],[-73.216067168909674,5.319726341494766]]},"properties":{"OBJECTID":68,"arcid":155,"grid_code":1,"from_node":132,"to_node":131,"Shape_Length":25}},{"type":"Feature","id":69,"geometry":{"type":"LineString","coordinates":[[-73.216180256496159,5.3196136413666002],[-73.21606749452107,5.3196133150051939]]},"properties":{"OBJECTID":69,"arcid":156,"grid_code":1,"from_node":132,"to_node":133,"Shape_Length":12.5}},{"type":"Feature","id":70,"geometry":{"type":"LineString","coordinates":[[-73.216067168909674,5.319726341494766],[-73.21606749452107,5.3196133150051939]]},"properties":{"OBJECTID":70,"arcid":157,"grid_code":1,"from_node":131,"to_node":133,"Shape_Length":12.5}},{"type":"Feature","id":71,"geometry":{"type":"LineString","coordinates":[[-73.236811588866516,5.3193401442801251],[-73.236816781063851,5.3193339353208637],[-73.237034672042597,5.3193345585610299]]},"properties":{"OBJECTID":71,"arcid":159,"grid_code":1,"from_node":130,"to_node":135,"Shape_Length":25.049576478071355}},{"type":"Feature","id":72,"geometry":{"type":"LineString","coordinates":[[-73.207708727369166,5.324562249461442],[-73.207822799346502,5.3241104738101788],[-73.208048978606342,5.3238850781274305],[-73.208051269779574,5.3230938962769043],[-73.208729478288163,5.3225307340994483],[-73.208843548710746,5.322078957853221],[-73.209182815682524,5.3217408631292571],[-73.209184450572366,5.3211757328468972],[-73.209410628071865,5.3209503361147004],[-73.20986167534214,5.3209516466349678],[-73.210087852569018,5.3207262495417709],[-73.210877838607288,5.3205024894430339],[-73.21200872077651,5.3193754997949254],[-73.212685290968466,5.3193774620207757],[-73.212911140587906,5.319265089635782]]},"properties":{"OBJECTID":72,"arcid":160,"grid_code":1,"from_node":102,"to_node":-136,"Shape_Length":930.53370598763877}},{"type":"Feature","id":73,"geometry":{"type":"LineString","coordinates":[[-73.21606749452107,5.3196133150051939],[-73.216069448042134,5.3189351560586617],[-73.215620028857515,5.3183687182464885]]},"properties":{"OBJECTID":73,"arcid":163,"grid_code":1,"from_node":133,"to_node":-139,"Shape_Length":155.03905296791061}},{"type":"Feature","id":74,"geometry":{"type":"MultiLineString","coordinates":[[[-73.184808345878011,5.3219689363005216],[-73.184377845545129,5.3217825003464947]],[[-73.18438144700383,5.3217780884988573],[-73.184600882369452,5.3216689213663377],[-73.184601127801884,5.3215852352997759]],[[-73.185084663585883,5.3208690137622874],[-73.185392855699817,5.3207670500807804],[-73.187648393441904,5.3206606623176542],[-73.189576590849057,5.3188403874332302]]]},"properties":{"OBJECTID":74,"arcid":167,"grid_code":1,"from_node":122,"to_node":142,"Shape_Length":668.31261514698417}},{"type":"Feature","id":75,"geometry":{"type":"LineString","coordinates":[[-73.223503313484784,5.3218953495576411],[-73.223504610992919,5.3214432417926663],[-73.223843872185086,5.3211051361780672],[-73.223958256122472,5.3205403263467526],[-73.22452433802431,5.3197507619471445],[-73.224411899600923,5.3196374100991051],[-73.224525310212599,5.3194116809119434],[-73.224413195892282,5.319185302077333],[-73.224530170211153,5.317716275677479],[-73.225208686040048,5.3170400611866526],[-73.225434210185739,5.3170407102319803],[-73.225660381745712,5.3168153050123648]]},"properties":{"OBJECTID":75,"arcid":169,"grid_code":1,"from_node":125,"to_node":-144,"Shape_Length":677.28060368146794}},{"type":"Feature","id":76,"geometry":{"type":"LineString","coordinates":[[-73.245450964846654,5.3166458719908025],[-73.245056197961929,5.3166447487256159],[-73.244753379239356,5.3167954382392342]]},"properties":{"OBJECTID":76,"arcid":171,"grid_code":1,"from_node":145,"to_node":140,"Shape_Length":81.23754651668537}},{"type":"Feature","id":77,"geometry":{"type":"LineString","coordinates":[[-73.229045507783482,5.3160338380482068],[-73.228931453446549,5.316485623436435],[-73.228027093315518,5.3172742228044569],[-73.227913037769099,5.3177260076628565],[-73.226670063588671,5.3186266586119411],[-73.226667474462118,5.319530875775623],[-73.226554064464437,5.3197566056100172],[-73.22429297781413,5.3217845981186782],[-73.223729163535026,5.3217829728634314],[-73.223503313484784,5.3218953495576411]]},"properties":{"OBJECTID":77,"arcid":172,"grid_code":1,"from_node":147,"to_node":125,"Shape_Length":960.71514527315526}},{"type":"Feature","id":78,"geometry":{"type":"LineString","coordinates":[[-73.237752549058911,5.3188521367276014],[-73.238172512129808,5.3184335817478843],[-73.238174441021613,5.3177554146234245],[-73.237949558048101,5.3175287144656602],[-73.238067142223954,5.3158336189100739]]},"properties":{"OBJECTID":78,"arcid":174,"grid_code":1,"from_node":137,"to_node":148,"Shape_Length":363.92117583138463}},{"type":"Feature","id":79,"geometry":{"type":"LineString","coordinates":[[-73.229045507783482,5.3160338380482068],[-73.229158915892242,5.3158081071987473],[-73.229497848011547,5.3155830236819082],[-73.22949849381979,5.3153569690169906]]},"properties":{"OBJECTID":79,"arcid":179,"grid_code":1,"from_node":147,"to_node":-153,"Shape_Length":98.020240662047229}},{"type":"Feature","id":80,"geometry":{"type":"LineString","coordinates":[[-73.238067142223954,5.3158336189100739],[-73.23795470097555,5.3157202689308392],[-73.23795695044835,5.3149290739745387],[-73.23784418799022,5.3149287518789849]]},"properties":{"OBJECTID":80,"arcid":182,"grid_code":1,"from_node":148,"to_node":-156,"Shape_Length":117.67766952966369}},{"type":"Feature","id":81,"geometry":{"type":"LineString","coordinates":[[-73.234895638440534,5.3207910536992333],[-73.234903028971473,5.3181981723095042],[-73.234678147483251,5.3179714713052171],[-73.234568927710356,5.3167278444271284],[-73.235021587877924,5.316163997178621],[-73.23502480692423,5.315033720472643],[-73.235364381038522,5.3145825774849156],[-73.235365668105146,5.3141304667007176],[-73.235141752684839,5.3135646832176402]]},"properties":{"OBJECTID":81,"arcid":184,"grid_code":1,"from_node":128,"to_node":158,"Shape_Length":845.02896482988911}},{"type":"Feature","id":82,"geometry":{"type":"LineString","coordinates":[[-73.203565886838675,5.314428708762966],[-73.203565379302205,5.3146038290244739],[-73.203452291417136,5.3147165263894065],[-73.20310578360926,5.3147733769043128]]},"properties":{"OBJECTID":82,"arcid":185,"grid_code":1,"from_node":-159,"to_node":151,"Shape_Length":75.96795868407078}},{"type":"Feature","id":83,"geometry":{"type":"MultiLineString","coordinates":[[[-73.246185759346801,5.3159664264083579],[-73.246186069725454,5.3158567581648066],[-73.24637189615737,5.3158572865265983]],[[-73.248324845233924,5.3141074135828879],[-73.248540251385748,5.3139141959408649]],[[-73.251934352701056,5.3125709778657786],[-73.25251037479326,5.31248381936076]]]},"properties":{"OBJECTID":83,"arcid":194,"grid_code":1,"from_node":145,"to_node":168,"Shape_Length":129.34714852227268}},{"type":"Feature","id":84,"geometry":{"type":"LineString","coordinates":[[-73.253690240646293,5.3124451290562016],[-73.2531869523186,5.312485734666339],[-73.253073870951368,5.3125984442808427],[-73.252961426449332,5.3124850963134547],[-73.25251037479326,5.31248381936076]]},"properties":{"OBJECTID":84,"arcid":198,"grid_code":1,"from_node":171,"to_node":168,"Shape_Length":141.32607413033105}},{"type":"Feature","id":85,"geometry":{"type":"LineString","coordinates":[[-73.254612643898739,5.3122637086436315],[-73.254540744415252,5.312263505315074],[-73.254540719370851,5.3122724029477499]]},"properties":{"OBJECTID":85,"arcid":202,"grid_code":1,"from_node":173,"to_node":171,"Shape_Length":8.9541999995708466}},{"type":"Feature","id":86,"geometry":{"type":"LineString","coordinates":[[-73.25251037479326,5.31248381936076],[-73.2525106933182,5.3123707906138167],[-73.253415024908676,5.3115821425122363],[-73.253641823522074,5.3111306653139634]]},"properties":{"OBJECTID":86,"arcid":204,"grid_code":1,"from_node":168,"to_node":175,"Shape_Length":201.27852209667788}},{"type":"Feature","id":87,"geometry":{"type":"LineString","coordinates":[[-73.216180256496159,5.3196136413666002],[-73.216859106570226,5.3188244133216349],[-73.217198042924721,5.318599338639098],[-73.217425518314784,5.3179218313320336],[-73.218896295670035,5.3162306677452182],[-73.218899868968393,5.3149873742724099],[-73.219126365856937,5.3146489452847163],[-73.219691470740898,5.3141984656426295],[-73.219692119954871,5.3139724121748078],[-73.21991829141011,5.3137470093651782],[-73.219921212030812,5.3127297686055286],[-73.220034297449061,5.312617067081808],[-73.220150302384326,5.3114871245954518],[-73.220376472520073,5.3112617212403981],[-73.22037744541494,5.310922640879042]]},"properties":{"OBJECTID":87,"arcid":205,"grid_code":1,"from_node":132,"to_node":176,"Shape_Length":1139.1087905032005}},{"type":"Feature","id":88,"geometry":{"type":"LineString","coordinates":[[-73.220490530338694,5.3108099391269761],[-73.220490206074913,5.3109229659219155],[-73.22037744541494,5.310922640879042]]},"properties":{"OBJECTID":88,"arcid":206,"grid_code":1,"from_node":177,"to_node":176,"Shape_Length":25}},{"type":"Feature","id":89,"geometry":{"type":"LineString","coordinates":[[-73.220490530338694,5.3108099391269761],[-73.22037776969924,5.3108096140910588],[-73.22037744541494,5.310922640879042]]},"properties":{"OBJECTID":89,"arcid":207,"grid_code":1,"from_node":177,"to_node":176,"Shape_Length":25}},{"type":"Feature","id":90,"geometry":{"type":"LineString","coordinates":[[-73.229045507783482,5.3160338380482068],[-73.228932745668899,5.3160335142571453],[-73.228933391738281,5.3158074596649039],[-73.228145996322425,5.3151270291516006],[-73.228036142497658,5.3141094600399192],[-73.227923703899478,5.3139961089403585],[-73.22792499624795,5.3135439999722838],[-73.228038080897178,5.3134312965462493],[-73.227928872624233,5.3121876730265383],[-73.228155041221655,5.3119622659630004],[-73.228157624474989,5.311058047846843],[-73.228384115288662,5.3107196132449745]]},"properties":{"OBJECTID":90,"arcid":208,"grid_code":1,"from_node":147,"to_node":-178,"Shape_Length":669.78370171967413}},{"type":"Feature","id":91,"geometry":{"type":"LineString","coordinates":[[-73.238738827749344,5.3186565519156197],[-73.238962175441401,5.3183228091449992],[-73.239076545155683,5.3177579916943323],[-73.240094623608755,5.316630609577965],[-73.240095265680154,5.3164045536236841],[-73.240321433376025,5.316179141166077],[-73.240322396266407,5.3158400571875459],[-73.24088621020978,5.3158416654700567],[-73.241677474136125,5.3151657477370229],[-73.24303543290975,5.3134741808265202],[-73.243600526320506,5.3130236731064064],[-73.243940414256173,5.3124594947052399],[-73.243943294773246,5.3114422406507327],[-73.24439690292914,5.3105392975365415]]},"properties":{"OBJECTID":91,"arcid":209,"grid_code":1,"from_node":138,"to_node":179,"Shape_Length":1169.2981651873383}},{"type":"Feature","id":92,"geometry":{"type":"LineString","coordinates":[[-73.24450998485294,5.3104265899022627],[-73.244509664987888,5.3105396181704716],[-73.24439690292914,5.3105392975365415]]},"properties":{"OBJECTID":92,"arcid":210,"grid_code":1,"from_node":180,"to_node":179,"Shape_Length":25}},{"type":"Feature","id":93,"geometry":{"type":"LineString","coordinates":[[-73.24450998485294,5.3104265899022627],[-73.244397222814698,5.3104262692751956]]},"properties":{"OBJECTID":93,"arcid":211,"grid_code":1,"from_node":180,"to_node":181,"Shape_Length":12.5}},{"type":"Feature","id":94,"geometry":{"type":"LineString","coordinates":[[-73.24439690292914,5.3105392975365415],[-73.244397222814698,5.3104262692751956]]},"properties":{"OBJECTID":94,"arcid":212,"grid_code":1,"from_node":179,"to_node":181,"Shape_Length":12.5}},{"type":"Feature","id":95,"geometry":{"type":"LineString","coordinates":[[-73.24450998485294,5.3104265899022627],[-73.244510304711085,5.3103135616336221]]},"properties":{"OBJECTID":95,"arcid":213,"grid_code":1,"from_node":180,"to_node":182,"Shape_Length":12.5}},{"type":"Feature","id":96,"geometry":{"type":"LineString","coordinates":[[-73.244510304711085,5.3103135616336221],[-73.244397542693378,5.3103132410134171]]},"properties":{"OBJECTID":96,"arcid":214,"grid_code":1,"from_node":182,"to_node":183,"Shape_Length":12.5}},{"type":"Feature","id":97,"geometry":{"type":"LineString","coordinates":[[-73.244397222814698,5.3104262692751956],[-73.244397542693378,5.3103132410134171]]},"properties":{"OBJECTID":97,"arcid":215,"grid_code":1,"from_node":181,"to_node":183,"Shape_Length":12.5}},{"type":"Feature","id":98,"geometry":{"type":"LineString","coordinates":[[-73.235141752684839,5.3135646832176402],[-73.23491655041191,5.3134510104705175],[-73.234919767997326,5.3123207337297504],[-73.234020248685141,5.3114139322300407],[-73.233347864152236,5.309942637692675]]},"properties":{"OBJECTID":98,"arcid":216,"grid_code":1,"from_node":158,"to_node":-184,"Shape_Length":473.34496924701125}},{"type":"Feature","id":99,"geometry":{"type":"LineString","coordinates":[[-73.234928773542975,5.3091559586256709],[-73.234928130470223,5.3093820140014838],[-73.235265449830422,5.3097220639405744],[-73.235259018390252,5.3119826179916174],[-73.235482933838142,5.3125484013051514],[-73.235481325576018,5.3131135398490699],[-73.235142396189232,5.313338627846214],[-73.235141752684839,5.3135646832176402]]},"properties":{"OBJECTID":99,"arcid":220,"grid_code":1,"from_node":188,"to_node":158,"Shape_Length":527.91695962147219}},{"type":"Feature","id":100,"geometry":{"type":"LineString","coordinates":[[-73.253641823522074,5.3111306653139634],[-73.253530970246274,5.3104521734240677],[-73.253757131789456,5.3102267536653587],[-73.253760313097871,5.3090964653390582]]},"properties":{"OBJECTID":100,"arcid":221,"grid_code":1,"from_node":175,"to_node":-189,"Shape_Length":236.38987068805511}},{"type":"Feature","id":101,"geometry":{"type":"LineString","coordinates":[[-73.244397542693378,5.3103132410134171],[-73.243835332511125,5.3097464964600709],[-73.243836292309879,5.309407411768615],[-73.243723850437377,5.3092940628554315],[-73.243837891836321,5.3088422706075526],[-73.244289898130418,5.3085044682352533]]},"properties":{"OBJECTID":101,"arcid":223,"grid_code":1,"from_node":183,"to_node":-191,"Shape_Length":257.60483749820287}},{"type":"Feature","id":102,"geometry":{"type":"LineString","coordinates":[[-73.244510304711085,5.3103135616336221],[-73.245641760565107,5.3089604266239059],[-73.245869520777489,5.3081698687216692]]},"properties":{"OBJECTID":102,"arcid":225,"grid_code":1,"from_node":182,"to_node":193,"Shape_Length":286.25761551367282}},{"type":"Feature","id":103,"geometry":{"type":"LineString","coordinates":[[-73.246095363652586,5.3080574807729075],[-73.245869520777489,5.3081698687216692]]},"properties":{"OBJECTID":103,"arcid":227,"grid_code":1,"from_node":195,"to_node":193,"Shape_Length":27.950849718747371}},{"type":"Feature","id":104,"geometry":{"type":"LineString","coordinates":[[-73.246095363652586,5.3080574807729075],[-73.245982921395054,5.3079441322109027]]},"properties":{"OBJECTID":104,"arcid":228,"grid_code":1,"from_node":195,"to_node":197,"Shape_Length":17.677669529663689}},{"type":"Feature","id":105,"geometry":{"type":"LineString","coordinates":[[-73.245869520777489,5.3081698687216692],[-73.245982921395054,5.3079441322109027]]},"properties":{"OBJECTID":105,"arcid":229,"grid_code":1,"from_node":193,"to_node":197,"Shape_Length":27.950849718747371}},{"type":"Feature","id":106,"geometry":{"type":"LineString","coordinates":[[-73.225801276303855,5.3069822702293168],[-73.22580095324183,5.3070952973653736],[-73.225349912119754,5.3070940018808503],[-73.224671410896931,5.3077702204284645],[-73.22444459674567,5.3082216804294795],[-73.223766093224,5.3088978972148766],[-73.223652361998347,5.3092366538828175],[-73.222521518552909,5.3103636785715453],[-73.222070475861699,5.3103623798966284],[-73.221844306571967,5.3105877841955369],[-73.221055306082434,5.3104724835062962],[-73.220490530338694,5.3108099391269761]]},"properties":{"OBJECTID":106,"arcid":231,"grid_code":1,"from_node":-199,"to_node":177,"Shape_Length":793.46948523541278}},{"type":"Feature","id":107,"geometry":{"type":"LineString","coordinates":[[-73.234928773542975,5.3091559586256709],[-73.23492941658796,5.3089299032481323],[-73.234704858867445,5.3085901756280043],[-73.234819227471291,5.3080253594901832],[-73.233919712504814,5.3071185598477557],[-73.233920677240633,5.306779476943805]]},"properties":{"OBJECTID":107,"arcid":238,"grid_code":1,"from_node":188,"to_node":204,"Shape_Length":312.72849110051919}},{"type":"Feature","id":108,"geometry":{"type":"LineString","coordinates":[[-73.260649281993238,5.3053859113241968],[-73.259066175882708,5.3069638744668062],[-73.2590655418647,5.3071899327925509],[-73.257821666536529,5.3084297560598577],[-73.255677274213298,5.3091018827870826],[-73.254546787933407,5.310115956698227],[-73.254545833858487,5.3104550433323006],[-73.253641823522074,5.3111306653139634]]},"properties":{"OBJECTID":108,"arcid":258,"grid_code":1,"from_node":-218,"to_node":175,"Shape_Length":1046.6727743946544}},{"type":"Feature","id":109,"geometry":{"type":"LineString","coordinates":[[-73.237534478793478,5.3048683073447247],[-73.237533516379813,5.3052073909327104],[-73.23730703245603,5.305545831284082],[-73.236741623975135,5.3061093618996775],[-73.2365161024195,5.3061087183103304],[-73.235159117556904,5.307461187582371],[-73.235267378721048,5.3090438976915602],[-73.234928773542975,5.3091559586256709]]},"properties":{"OBJECTID":109,"arcid":263,"grid_code":1,"from_node":222,"to_node":188,"Shape_Length":623.06410429491484}},{"type":"Feature","id":110,"geometry":{"type":"LineString","coordinates":[[-73.233920677240633,5.306779476943805],[-73.233926142896095,5.3048580070813438]]},"properties":{"OBJECTID":110,"arcid":264,"grid_code":1,"from_node":204,"to_node":-223,"Shape_Length":212.5}},{"type":"Feature","id":111,"geometry":{"type":"LineString","coordinates":[[-73.237534478793478,5.3048683073447247],[-73.237534799584168,5.3047552794812001]]},"properties":{"OBJECTID":111,"arcid":265,"grid_code":1,"from_node":222,"to_node":224,"Shape_Length":12.5}},{"type":"Feature","id":112,"geometry":{"type":"LineString","coordinates":[[-73.237534799584168,5.3047552794812001],[-73.237422039000364,5.3047549579233353]]},"properties":{"OBJECTID":112,"arcid":266,"grid_code":1,"from_node":224,"to_node":225,"Shape_Length":12.5}},{"type":"Feature","id":113,"geometry":{"type":"LineString","coordinates":[[-73.237534478793478,5.3048683073447247],[-73.237421718189168,5.3048679857799703],[-73.237422039000364,5.3047549579233353]]},"properties":{"OBJECTID":113,"arcid":267,"grid_code":1,"from_node":222,"to_node":225,"Shape_Length":25}},{"type":"Feature","id":114,"geometry":{"type":"LineString","coordinates":[[-73.233920677240633,5.306779476943805],[-73.233358160283473,5.3063257546336606],[-73.233359125180968,5.3059866718242024],[-73.233134569040857,5.3056469442436622],[-73.233136498769156,5.3049687786881865],[-73.232911621337038,5.3047420787606816]]},"properties":{"OBJECTID":114,"arcid":268,"grid_code":1,"from_node":204,"to_node":-226,"Shape_Length":272.96378297053786}},{"type":"Feature","id":115,"geometry":{"type":"LineString","coordinates":[[-73.237422039000364,5.3047549579233353],[-73.237309920066053,5.3045285806441358]]},"properties":{"OBJECTID":115,"arcid":270,"grid_code":1,"from_node":225,"to_node":-228,"Shape_Length":27.950849718747371}},{"type":"Feature","id":116,"geometry":{"type":"LineString","coordinates":[[-73.245982921395054,5.3079441322109027],[-73.246097918867378,5.3071532537709896],[-73.246325038547994,5.3065887520311161],[-73.246216746890354,5.3050060345202157],[-73.246104304972789,5.3048926861453563],[-73.246220257922545,5.3037627221818937]]},"properties":{"OBJECTID":116,"arcid":272,"grid_code":1,"from_node":197,"to_node":230,"Shape_Length":474.44988312640203}},{"type":"Feature","id":117,"geometry":{"type":"LineString","coordinates":[[-73.246897780698887,5.3034255559193184],[-73.246672258882313,5.3034249163582645],[-73.246220257922545,5.3037627221818937]]},"properties":{"OBJECTID":117,"arcid":273,"grid_code":1,"from_node":231,"to_node":230,"Shape_Length":87.5}},{"type":"Feature","id":118,"geometry":{"type":"LineString","coordinates":[[-73.247123621501771,5.3033131669451032],[-73.246897780698887,5.3034255559193184]]},"properties":{"OBJECTID":118,"arcid":274,"grid_code":1,"from_node":232,"to_node":231,"Shape_Length":27.950849718747371}},{"type":"Feature","id":119,"geometry":{"type":"LineString","coordinates":[[-73.247123621501771,5.3033131669451032],[-73.247011179569057,5.3031998187761031]]},"properties":{"OBJECTID":119,"arcid":275,"grid_code":1,"from_node":232,"to_node":234,"Shape_Length":17.677669529663689}},{"type":"Feature","id":120,"geometry":{"type":"LineString","coordinates":[[-73.246897780698887,5.3034255559193184],[-73.247011179569057,5.3031998187761031]]},"properties":{"OBJECTID":120,"arcid":276,"grid_code":1,"from_node":231,"to_node":234,"Shape_Length":27.950849718747371}},{"type":"Feature","id":121,"geometry":{"type":"LineString","coordinates":[[-73.264830641521868,5.3021197837867016],[-73.262682163090304,5.3042613267545633],[-73.262228584736377,5.3051642937620365],[-73.26166445761578,5.3052757374908337],[-73.260646432142678,5.3064031746878246],[-73.2606457987673,5.3066292332083309],[-73.259514689528629,5.3078693788222928],[-73.259400341985156,5.3084342069833497],[-73.255669010453147,5.3120406353609582],[-73.255443166475345,5.3121530268937107],[-73.25487935147487,5.3121514330172035],[-73.25476908747109,5.3122613352322281]]},"properties":{"OBJECTID":121,"arcid":278,"grid_code":1,"from_node":-237,"to_node":172,"Shape_Length":1636.4311475814616}},{"type":"Feature","id":122,"geometry":{"type":"LineString","coordinates":[[-73.254457858673604,5.3016384713201576],[-73.253780974860547,5.3017495901664944],[-73.253328977578093,5.3020874028886347],[-73.252426571385129,5.3021978829534664],[-73.25220041340215,5.302423303085936],[-73.252199459436895,5.3027623893779046],[-73.251634063351815,5.3033259389940293],[-73.251519711305093,5.3038907636889219],[-73.250954313442975,5.3044543121204804],[-73.250953676774586,5.3046803694830178],[-73.249370556541351,5.3062583002787784],[-73.249032271834622,5.3062573417488874],[-73.248806111063516,5.3064827597149842],[-73.248467826337077,5.3064818008357291],[-73.247110857775198,5.3078343047326548],[-73.246659810916228,5.3078330246237382],[-73.246095363652586,5.3080574807729075]]},"properties":{"OBJECTID":122,"arcid":283,"grid_code":1,"from_node":-240,"to_node":195,"Shape_Length":1264.9718386780983}},{"type":"Feature","id":123,"geometry":{"type":"LineString","coordinates":[[-73.247011179569057,5.3031998187761031],[-73.247237977001433,5.3027483443406531],[-73.248481851367814,5.3015085453874979]]},"properties":{"OBJECTID":123,"arcid":284,"grid_code":1,"from_node":234,"to_node":-241,"Shape_Length":250.3560642637953}},{"type":"Feature","id":124,"geometry":{"type":"LineString","coordinates":[[-73.238784780199012,5.3013679768827178],[-73.238783498727841,5.3018200886890083],[-73.238670418194985,5.3019327954797557],[-73.238780615012473,5.3028373402279287],[-73.238441372550724,5.3031754602984273],[-73.238439769832894,5.3037405999174307],[-73.238213607712595,5.3039660130508786],[-73.238212004547293,5.3045311525859207],[-73.237985841988788,5.3047565655071969],[-73.237534799584168,5.3047552794812001]]},"properties":{"OBJECTID":124,"arcid":286,"grid_code":1,"from_node":-243,"to_node":224,"Shape_Length":467.19957809104142}},{"type":"Feature","id":125,"geometry":{"type":"LineString","coordinates":[[-73.221872144711611,5.3008674709643531],[-73.221645333065908,5.3013189301962882],[-73.220401423546463,5.3025586574007955],[-73.220063146160584,5.3025576836931068],[-73.219497730901338,5.3031211942512417],[-73.219157509068822,5.3037983803847615],[-73.218479008172608,5.3044745911419282],[-73.216670963887822,5.3058257073776902],[-73.216219601200123,5.3059374320894808],[-73.21576726393991,5.3063882359766996],[-73.215765314722972,5.3070663950859087],[-73.215425735875186,5.3075175239956875],[-73.214861612213625,5.3076289214530803],[-73.214183102628951,5.3083051244253454],[-73.213844823263727,5.3083041462610074],[-73.213505567796233,5.3086422470274357],[-73.212938838993423,5.3096578529389804],[-73.212938187849659,5.309883905603062],[-73.21259893090172,5.3102220053968781],[-73.212597953885421,5.3105610843229929],[-73.21112685694743,5.3123652581353094],[-73.21101311832399,5.3127040099021636],[-73.210560771971714,5.3131548069409069],[-73.210222816906395,5.3130407997490359],[-73.208527165390635,5.3145052304452411],[-73.208187903474141,5.3148433260999308],[-73.208072855289871,5.315634180641859],[-73.205359069168225,5.3182259067852744],[-73.205020458489955,5.3183379477674277],[-73.2036637201996,5.3195772894682021],[-73.202310258225268,5.3196863699639048],[-73.2020840796323,5.3199117633798991],[-73.201745796184994,5.3199107764444964],[-73.200614900348938,5.3210377405896123],[-73.199148675607432,5.3211464835665909],[-73.199150976965583,5.3203553055261299],[-73.198926769934346,5.3199025447714501],[-73.198701905600387,5.319675834861548],[-73.19825086203214,5.3196745164903438],[-73.197350420282334,5.3191067521246156],[-73.197352065151563,5.3185416254793916],[-73.196789907367602,5.3179748501001738],[-73.196790894405893,5.317635774207039],[-73.196500921719192,5.3171970253556298]]},"properties":{"OBJECTID":125,"arcid":289,"grid_code":1,"from_node":-246,"to_node":142,"Shape_Length":4192.4183363011498}},{"type":"Feature","id":126,"geometry":{"type":"LineString","coordinates":[[-73.240710659476036,5.2982086467594387],[-73.240371421076674,5.2985467691273254],[-73.240257701671425,5.2988855326174846],[-73.240255781934621,5.2995637009179797],[-73.240480341731683,5.2999034265387666],[-73.240476501752951,5.3012597632427401],[-73.240701382019708,5.3014864609408363],[-73.240699461819418,5.3021646293468851],[-73.240811902095643,5.3022779782237848],[-73.240698501625857,5.3025037135440858],[-73.240696901164881,5.3030688538641275],[-73.239452691854524,5.3044216588769881],[-73.239338328935389,5.304986477559674],[-73.239450128288979,5.3053258827198473],[-73.240799415251317,5.3066860727358813],[-73.241588103029841,5.3069143759201403],[-73.242037867539466,5.3073677720292451],[-73.242149348400034,5.3078202054428427],[-73.242711555368999,5.3083869504765051],[-73.242709314741091,5.3091781476304005],[-73.242370069098399,5.3095162693531028],[-73.242369108478741,5.3098553537754407],[-73.24214262407196,5.3101937961650538],[-73.242140061621114,5.3110980211519871],[-73.241687731877832,5.3115488490007454],[-73.241460284709959,5.3122263750244194],[-73.241459002549348,5.3126784873252983],[-73.240780184170703,5.3134677553183689],[-73.240779542705667,5.3136938113776644],[-73.24021412645088,5.3142573436143055],[-73.239420294316986,5.315837482864862],[-73.238067142223954,5.3158336189100739]]},"properties":{"OBJECTID":126,"arcid":295,"grid_code":1,"from_node":-251,"to_node":148,"Shape_Length":2498.796075325426}},{"type":"Feature","id":127,"geometry":{"type":"LineString","coordinates":[[-73.252889370977854,5.2980170913675835],[-73.252211220684472,5.2985803248391816],[-73.25221058518197,5.2988063823968972],[-73.251192880109883,5.2998207733707572],[-73.250967359080974,5.2998201358083863],[-73.249610731867833,5.3010596234741252],[-73.249385210581025,5.30105898518645],[-73.247123621501771,5.3033131669451032]]},"properties":{"OBJECTID":127,"arcid":296,"grid_code":1,"from_node":-252,"to_node":232,"Shape_Length":888.76579476032646}},{"type":"Feature","id":128,"geometry":{"type":"LineString","coordinates":[[-73.246220257922545,5.3037627221818937],[-73.246221853570333,5.3031975801926743],[-73.245096799904132,5.3022901538137823],[-73.244984677858881,5.302063777128712],[-73.244986274116101,5.3014986354843066],[-73.244873832921186,5.3013852871581495],[-73.244882769152611,5.298220493930323],[-73.245335403379698,5.2976566312022397],[-73.245448800978622,5.2974308941448092],[-73.245336360162895,5.2973175461047299],[-73.24544943877244,5.2972048373981258]]},"properties":{"OBJECTID":128,"arcid":299,"grid_code":1,"from_node":230,"to_node":-256,"Shape_Length":824.05186693021767}},{"type":"Feature","id":129,"geometry":{"type":"LineString","coordinates":[[-73.229782340773468,5.2948996594537556],[-73.229106434364084,5.294671670137145],[-73.228431815866657,5.2939915708690428],[-73.228432781192055,5.2936524888312864],[-73.227982714685041,5.2933121165757777]]},"properties":{"OBJECTID":129,"arcid":313,"grid_code":1,"from_node":-261,"to_node":270,"Shape_Length":285.12295868219161}},{"type":"Feature","id":130,"geometry":{"type":"LineString","coordinates":[[-73.228303925210867,5.299303532731015],[-73.227741741220441,5.2987367815518729],[-73.22774496288261,5.2976065086741979],[-73.22763252634239,5.2974931584820251],[-73.227635103278232,5.296588940200806],[-73.227861264376344,5.2963635312711963],[-73.22786223044767,5.2960244493644764],[-73.228089035120448,5.2955729856154683],[-73.228090644755909,5.2950078490177628],[-73.227753657888826,5.2945547716891035],[-73.227982714685041,5.2933121165757777]]},"properties":{"OBJECTID":130,"arcid":314,"grid_code":1,"from_node":-250,"to_node":270,"Shape_Length":724.57730426854107}},{"type":"Feature","id":131,"geometry":{"type":"LineString","coordinates":[[-73.227982714685041,5.2933121165757777],[-73.227532970600677,5.2928587168606365],[-73.227533936207848,5.2925196349761805],[-73.227476691948851,5.2924619253554228]]},"properties":{"OBJECTID":131,"arcid":320,"grid_code":1,"from_node":270,"to_node":277,"Shape_Length":117.21087465211451}},{"type":"Feature","id":132,"geometry":{"type":"LineString","coordinates":[[-73.230701112670829,5.289024808149934],[-73.230362519610793,5.2891368700204735],[-73.230136041418419,5.2894753085643558],[-73.229704845576137,5.2894740771687871]]},"properties":{"OBJECTID":132,"arcid":325,"grid_code":1,"from_node":286,"to_node":277,"Shape_Length":132.39916169487265}},{"type":"Feature","id":133,"geometry":{"type":"LineString","coordinates":[[-73.230926948348198,5.2889124242715893],[-73.230701112670829,5.289024808149934]]},"properties":{"OBJECTID":133,"arcid":327,"grid_code":1,"from_node":287,"to_node":286,"Shape_Length":27.950849718747371}},{"type":"Feature","id":134,"geometry":{"type":"LineString","coordinates":[[-73.230926948348198,5.2889124242715893],[-73.2309272693672,5.2887993967544924]]},"properties":{"OBJECTID":134,"arcid":329,"grid_code":1,"from_node":287,"to_node":289,"Shape_Length":12.5}},{"type":"Feature","id":135,"geometry":{"type":"LineString","coordinates":[[-73.230701112670829,5.289024808149934],[-73.230701433737664,5.2889117806470978],[-73.2309272693672,5.2887993967544924]]},"properties":{"OBJECTID":135,"arcid":330,"grid_code":1,"from_node":286,"to_node":289,"Shape_Length":40.450849718747371}},{"type":"Feature","id":136,"geometry":{"type":"LineString","coordinates":[[-73.239719164694577,5.2899547141911523],[-73.239156013765779,5.289727056621607],[-73.238367027920219,5.2896117857382823],[-73.237916955763339,5.2892714198216373],[-73.237240728959236,5.2891564682963157],[-73.236903095657041,5.2889294504643196],[-73.236452064991113,5.2889281674761426],[-73.236227189809924,5.2887014701755239],[-73.235664042194045,5.2884738102271038],[-73.234874739707891,5.2884715633985087],[-73.23464986540111,5.2882448657691867],[-73.233409213677817,5.2883543603832202],[-73.23261798809466,5.2890302764638335],[-73.231942406103201,5.2886892644087657],[-73.230926948348198,5.2889124242715893]]},"properties":{"OBJECTID":136,"arcid":331,"grid_code":1,"from_node":-283,"to_node":287,"Shape_Length":1067.2402418207687}},{"type":"Feature","id":137,"geometry":{"type":"LineString","coordinates":[[-73.2309272693672,5.2887993967544924],[-73.231267787783011,5.2880091692399329]]},"properties":{"OBJECTID":137,"arcid":332,"grid_code":1,"from_node":289,"to_node":-292,"Shape_Length":95.197163823298851}},{"type":"Feature","id":138,"geometry":{"type":"LineString","coordinates":[[-73.262706173181812,5.2956710917806689],[-73.262932640956095,5.2953326362562931],[-73.262933272144792,5.2951065773778661],[-73.264140591679279,5.2939833738912014]]},"properties":{"OBJECTID":138,"arcid":333,"grid_code":1,"from_node":-260,"to_node":293,"Shape_Length":252.66627397129923}},{"type":"Feature","id":139,"geometry":{"type":"LineString","coordinates":[[-73.265483413782093,5.2872845113060354],[-73.265435415605438,5.2874275188666058],[-73.265096193997962,5.2877656612810124],[-73.265096032117185,5.2878237928545602]]},"properties":{"OBJECTID":139,"arcid":335,"grid_code":1,"from_node":294,"to_node":-278,"Shape_Length":76.148104250138317}},{"type":"Feature","id":140,"geometry":{"type":"LineString","coordinates":[[-73.261044841579718,5.287686746149471],[-73.260245661851414,5.2884302512315697]]},"properties":{"OBJECTID":140,"arcid":346,"grid_code":1,"from_node":-303,"to_node":-290,"Shape_Length":120.87045564443287}},{"type":"Feature","id":141,"geometry":{"type":"LineString","coordinates":[[-73.252462135694586,5.2895386569858864],[-73.252463087124411,5.2891995705017987],[-73.252013321287677,5.2887461835579801],[-73.25195099691831,5.2877676146366053]]},"properties":{"OBJECTID":141,"arcid":348,"grid_code":1,"from_node":-285,"to_node":-306,"Shape_Length":216.65175843732749}},{"type":"Feature","id":142,"geometry":{"type":"LineString","coordinates":[[-73.24682738894488,5.2883924508383524],[-73.246940465217662,5.2882797412005598],[-73.246941023576042,5.2880813264553126]]},"properties":{"OBJECTID":142,"arcid":349,"grid_code":1,"from_node":-291,"to_node":-307,"Shape_Length":39.620669529633886}}]}