{"type":"FeatureCollection","features":[{"type":"Feature","id":1,"geometry":{"type":"Polygon","coordinates":[[[-73.197743152424493,5.3389955440092081],[-73.19777350634223,5.3389965080824027],[-73.197878042637512,5.3389998328760271],[-73.198080912603984,5.3390061101439414],[-73.198265937323129,5.3389704888970186],[-73.198403181961226,5.3389706840498548],[-73.198525133627982,5.3389848321842805],[-73.198611991050484,5.3389949081885106],[-73.198626624818814,5.3390006746414542],[-73.198749145756437,5.3390489295645125],[-73.198898274036083,5.339085030150045],[-73.198959802952515,5.3390851191829256],[-73.199011646170504,5.3390851920280511],[-73.199113131066099,5.3390494502719434],[-73.199262417626414,5.3389719152217481],[-73.199429604292789,5.3388944026546028],[-73.199553053330703,5.3388007391628207],[-73.19959926229609,5.3387529051225329],[-73.199716389100047,5.3386316630208626],[-73.199823980392352,5.3385002432916622],[-73.199897044912632,5.3384393879674121],[-73.19996735570885,5.3383808322096797],[-73.200104716359533,5.3382972932855068],[-73.200283906277207,5.3381719592685499],[-73.2004179052621,5.3380924672935635],[-73.200475004118118,5.3380585961273823],[-73.200563159262344,5.3380373082752044],[-73.200671978129265,5.3380110282863598],[-73.200868860409514,5.3380352344385642],[-73.201000022033327,5.3381131732843414],[-73.201190802413578,5.3382210946278406],[-73.20129211463933,5.3383109503901096],[-73.201429271143923,5.3383709576536376],[-73.201462343712137,5.3383689332796962],[-73.201524748568261,5.3383651093623712],[-73.201650142839753,5.3383054861093342],[-73.201739772872202,5.3382159010430428],[-73.201883081638869,5.3381443320952826],[-73.202044252740052,5.3380967228854956],[-73.202169630823789,5.3380490498238373],[-73.202300928245222,5.3380312999046282],[-73.202450170738757,5.3379776787269293],[-73.202533283384298,5.337932707228731],[-73.202593489397998,5.3379001328848972],[-73.202766645764029,5.3378226284116295],[-73.203011351292787,5.337775137912331],[-73.203012456559577,5.3377751397109705],[-73.203106825119846,5.3377752737099513],[-73.203244059865426,5.3377754688628443],[-73.203315726839264,5.3377337079443237],[-73.203392606283728,5.3377241778285907],[-73.203458958264264,5.3377159634210329],[-73.203490178229117,5.3377160092864528],[-73.203631995020487,5.3377162107345839],[-73.203763250173836,5.3377283587767579],[-73.203914359659905,5.3377326710260036],[-73.20398401844767,5.3377346576284026],[-73.204073531568213,5.3377288003438821],[-73.204169008992551,5.3377289361415592],[-73.204240714637251,5.3376512877767368],[-73.204330357260119,5.3375557267154363],[-73.204378163421438,5.3375079448358065],[-73.204437875707356,5.3374721428251632],[-73.204509502211693,5.3374602933578785],[-73.204587090321922,5.3374484402933149],[-73.204658705135103,5.3374365800341934],[-73.204772105148493,5.3374187932427617],[-73.204861668631054,5.3373770584045701],[-73.204945302883402,5.3373054112158229],[-73.205011046922266,5.3372277556564427],[-73.205118612134186,5.337120248900419],[-73.205173556214618,5.3370836491911291],[-73.205208198999173,5.3370605725874043],[-73.205315612225661,5.3370547386853104],[-73.205416938840642,5.3371326325649875],[-73.2055241910885,5.3372404459898348],[-73.205655334725861,5.3373303350269907],[-73.20584626079625,5.3373425712027256],[-73.20606712439826,5.3372830801500868],[-73.206317875169759,5.3371817607297203],[-73.206420837651478,5.3371462024353491],[-73.206473091859664,5.3371281548405136],[-73.206586542235073,5.3370744922940503],[-73.206753649761083,5.3370508023526781],[-73.206974486383388,5.3370092527748625],[-73.207183333244188,5.3370035636635862],[-73.207281642633689,5.3369905666613704],[-73.207362376572405,5.3369798917086655],[-73.20754727358775,5.3370339787351782],[-73.207732121140452,5.3371239550065752],[-73.207793954027693,5.3371597570172185],[-73.207928865824442,5.337237870331478],[-73.208024250618621,5.3373037951340621],[-73.208107775153678,5.3373098970341744],[-73.208298711116583,5.3373161419264648],[-73.208417963018519,5.3373761240089834],[-73.208494323554135,5.3373762319276352],[-73.208543273653106,5.3373763002761052],[-73.208722291800314,5.3373705688966879],[-73.20888339455297,5.337370796425148],[-73.209008610758758,5.3374367607979138],[-73.209121756263983,5.3375924226522216],[-73.209246737746696,5.3378258506825205],[-73.209401575822028,5.3380413813047767],[-73.20945469607733,5.3381018876920052],[-73.209490936057819,5.3381431710705556],[-73.209516694439856,5.3381690607536143],[-73.209604151710209,5.3382569676849698],[-73.209735288153013,5.3383528417103321],[-73.209872354725348,5.3384726592858556],[-73.210051070700331,5.338682239094112],[-73.210091978162211,5.3387289606730519],[-73.21018213070073,5.338831936644624],[-73.210292142068681,5.3389541563093417],[-73.210295331064628,5.3389576960408931],[-73.210396649585675,5.3390415659155792],[-73.210509922794643,5.3391075141005331],[-73.210670962594804,5.3391615678521021],[-73.210891661620849,5.3392157133345677],[-73.211028855896927,5.3392458082474832],[-73.211126914375541,5.33925041277638],[-73.211160127238031,5.3392519713015076],[-73.211327111556898,5.3393120172358408],[-73.211452292689103,5.3394019062729967],[-73.211583413843414,5.3395097421808941],[-73.211708557204133,5.3396295327767689],[-73.211786024805178,5.33970141738655],[-73.211867069009998,5.3397314691320616],[-73.211899341181606,5.3397434382091546],[-73.212024615843291,5.3397615541524601],[-73.212049530661261,5.3397633788769099],[-73.212191676604562,5.3397737525567095],[-73.212322990213806,5.3397440362583097],[-73.212337345192282,5.3397327659544089],[-73.212406623566778,5.3396783668632111],[-73.212478366983021,5.3395767929346789],[-73.212514347059425,5.3394512520736725],[-73.21262194104969,5.3393138419602906],[-73.212783199385115,5.3392123939368616],[-73.212812742114295,5.3389149539619893],[-73.212798524732079,5.3388141993158911],[-73.212808241007451,5.3387086656724136],[-73.212851471418219,5.338598401594993],[-73.212923376712411,5.3385217469810868],[-73.213067113556406,5.3384068190195535],[-73.213186853790205,5.3383446291014138],[-73.213330370300298,5.3383880016050398],[-73.213425958341247,5.338484080675812],[-73.213425827939545,5.3385752206699522],[-73.213377762773518,5.3387190636339028],[-73.213493704271002,5.3388964189346098],[-73.213577244993814,5.3388965358465157],[-73.213690636913327,5.338878749055084],[-73.213827996664691,5.3387952119295505],[-73.21390367011827,5.3387586427971883],[-73.214013096926863,5.3387057599629202],[-73.214210046656262,5.3386761371939997],[-73.214347297589654,5.3386703437614074],[-73.214490470558758,5.3386944707732482],[-73.214562053895634,5.3387065342791971],[-73.21460921074646,5.3387032256733846],[-73.2146456036117,5.3387006733973976],[-73.214723258271704,5.3386409701047342],[-73.214777086293452,5.3385513337771044],[-73.214832747133528,5.3385116026283868],[-73.214860702559349,5.3384916475715158],[-73.215081612926042,5.3383962618780174],[-73.215242732765887,5.3383905107135661],[-73.215433668728792,5.3383907787115277],[-73.215588776600725,5.3384149219111805],[-73.215714104322444,5.3384031362957671],[-73.215720030854698,5.3384005048794165],[-73.215821574206245,5.338355437153723],[-73.215952859936522,5.338343659632244],[-73.216107977700972,5.338361816045051],[-73.216221690678424,5.3384162888806941],[-73.216233202000637,5.3384218026241683],[-73.216316666281102,5.3384344713738301],[-73.216352515955805,5.3384399086748999],[-73.216477882348329,5.338398220601448],[-73.216573561220855,5.338248841410973],[-73.216663240715945,5.3381233679990601],[-73.216770794236709,5.338015865739635],[-73.216908120713185,5.3379562469832535],[-73.217007608214487,5.337975566219427],[-73.216955186732434,5.3378230807705904],[-73.217019596177408,5.3378293211662822],[-73.217079354328689,5.3377636166976004],[-73.2170676010889,5.3376380011928291],[-73.217091654356352,5.3375004732682783],[-73.217187324235567,5.3373630550610187],[-73.217294952400096,5.3372017175852307],[-73.21732975796192,5.3371530318869418],[-73.217414521762748,5.3370344319935157],[-73.217545944189908,5.3369269567137394],[-73.217659459316565,5.336825448435718],[-73.217707371597896,5.3366999165679658],[-73.217677765916108,5.3365324124409312],[-73.217707797876528,5.3363948917109383],[-73.217767662147878,5.3362514372540772],[-73.217869309820742,5.3361020652581601],[-73.218018671924142,5.335970696790298],[-73.218160007578263,5.3358411899190514],[-73.218162061629812,5.3358393139332634],[-73.218287465793878,5.3357617483060835],[-73.218412817797287,5.3357320131219694],[-73.218556007853465,5.3357441773519554],[-73.218721477713984,5.33571027470947],[-73.218758933577874,5.3357025935998763],[-73.2188425759241,5.335630947310392],[-73.218908381116876,5.3355114157192816],[-73.218915056784397,5.3354454225682275],[-73.218920480595671,5.3353918193770369],[-73.218986485437938,5.3352745855537478],[-73.219020751406504,5.3352137284308583],[-73.219028149229644,5.335200583040546],[-73.219099916028256,5.3350870544240934],[-73.219113698138642,5.3350681048092383],[-73.219195564323797,5.3349556032185887],[-73.219279248038845,5.3348480685835398],[-73.219345026251915,5.334752472448713],[-73.219476504437068,5.3346031310297235],[-73.219497237407552,5.3345824088511336],[-73.219572105068551,5.3345075735657019],[-73.219698926564149,5.3344653971603861],[-73.219715377862371,5.3344599265843726],[-73.219816867254565,5.3344241902242402],[-73.219880526664952,5.3343724873004703],[-73.219912440906398,5.334346573335722],[-73.219966224861366,5.3342868367681717],[-73.220032020161568,5.3341732910645874],[-73.220121688864822,5.3340538017416179],[-73.220135467377872,5.3340451052974345],[-73.2202351626226,5.3339821968209549],[-73.220324676642463,5.3339763350398925],[-73.220396322931947,5.333940547418365],[-73.220450085303128,5.3339047436090823],[-73.220533685381213,5.3338570129907907],[-73.220665002587737,5.3338213090062823],[-73.220754542687928,5.3337975093476189],[-73.220756878227292,5.3337975129448978],[-73.22086791482235,5.3337976658296498],[-73.220933611197154,5.3337558950186121],[-73.221023223243094,5.3336782691368398],[-73.221158543332081,5.3335484196239236],[-73.221172590742412,5.3335349378871229],[-73.22122646642822,5.3334094150125679],[-73.221322183072232,5.3332361093590066],[-73.221370093554924,5.3331045978989096],[-73.221549234909219,5.3330091582461137],[-73.221746217014243,5.3329555991216466],[-73.221754531246575,5.3329514514483662],[-73.221889522183687,5.3328840337711654],[-73.2219433466081,5.3327943956448962],[-73.221931651824207,5.3326269157995512],[-73.221985528409391,5.3325014001195541],[-73.222054290572999,5.3324154887838517],[-73.222057251141166,5.3324117880736139],[-73.222176637941459,5.3323760670019169],[-73.222290019069078,5.3323702375964217],[-73.222409354607976,5.3323704039710265],[-73.222528748602826,5.3323346927919033],[-73.222689985354521,5.332239218964844],[-73.222775186225817,5.3322200679018579],[-73.222875014570207,5.3321976118303951],[-73.223089927358217,5.3321261463046312],[-73.223280894797426,5.3321024869402436],[-73.22353160869676,5.3320310609847184],[-73.223630491853669,5.3320280059877518],[-73.223716591147706,5.3320253430951539],[-73.223865816554166,5.3319896633922781],[-73.223991215322314,5.3319180701628284],[-73.224104795200105,5.3317687062608456],[-73.224164713430753,5.331583383866132],[-73.224230563589572,5.3314339534142619],[-73.224263227865663,5.3313831740942419],[-73.224338197150018,5.3312666390442018],[-73.224357286159773,5.3312508496470628],[-73.22451143265647,5.3311233410693717],[-73.224696568891488,5.3310099680356302],[-73.224869820585695,5.3308547081782649],[-73.224977330939055,5.330777106578239],[-73.225067049105007,5.3306217307083443],[-73.22516276305106,5.3304424373686174],[-73.225200403275949,5.3303883746238512],[-73.225258430232316,5.3303050083694643],[-73.225383854181473,5.3302154781618469],[-73.225509282627229,5.3301259407596149],[-73.225634731757452,5.3300244360789293],[-73.225649541792905,5.3300108671078874],[-73.225778118765106,5.3298930613157722],[-73.225834519747252,5.329825407116914],[-73.225867772179924,5.3297855320766985],[-73.225993209618878,5.3296840300939721],[-73.226106698665149,5.3296004515996174],[-73.226213572298491,5.3295524269030352],[-73.226226107049172,5.3295467908517367],[-73.226375375623036,5.3294812086908792],[-73.226518711369408,5.3293857177766881],[-73.226673991911184,5.3292842580621027],[-73.226690299317795,5.3292667851340525],[-73.226757647747206,5.3291946622039177],[-73.226805533048889,5.3290870754082675],[-73.226859415929255,5.3289555720420481],[-73.226908337249938,5.3289066723051519],[-73.226937093072365,5.3288779308718404],[-73.227038580665919,5.3288421846191909],[-73.227187764703558,5.3288304277820657],[-73.22728885030017,5.3288064518563374],[-73.227313112210311,5.3288006988931897],[-73.227408661580455,5.3287410207815356],[-73.227492349792044,5.3286334843478471],[-73.22758793963169,5.3285439019795149],[-73.227701381013901,5.3284962100321422],[-73.227819391851426,5.3284039018186604],[-73.227838759650979,5.3283887491414816],[-73.227970204561245,5.3282633296889799],[-73.228053910759343,5.328143832272076],[-73.228173440551814,5.3280004560562588],[-73.228274981205402,5.3279288349478406],[-73.228334789718758,5.3278212553466915],[-73.228388649216754,5.3277136793428781],[-73.228490259118132,5.3275822434258657],[-73.228520272192782,5.3274566827797116],[-73.228603927129484,5.3273670869215835],[-73.228753185810831,5.3273074888495557],[-73.228860727640438,5.3272059625851398],[-73.228877518882371,5.3270837654034722],[-73.228878804912881,5.3270744088569586],[-73.228861110751609,5.3269248596945431],[-73.228825547061319,5.326751370579359],[-73.228795888319553,5.3266257307928981],[-73.228837858780139,5.3264762751600188],[-73.228975182558599,5.326416651007662],[-73.229106585200725,5.3263211430063961],[-73.229226072725055,5.3262076692485607],[-73.229351563224043,5.3260762657071723],[-73.229422018811078,5.3259706421314945],[-73.229435266724124,5.3259507806041029],[-73.229483175408177,5.3258252559308517],[-73.229533373766174,5.3257356951462498],[-73.229566912183202,5.3256758461633922],[-73.229686395210933,5.3255683600917791],[-73.229799898646377,5.3254728287081434],[-73.229949174414855,5.3253952819667347],[-73.230092484980162,5.3253177280307682],[-73.23027761941654,5.3252043460038294],[-73.230316330734013,5.3251493632525353],[-73.230391203790987,5.3250430238165336],[-73.230361609800411,5.3248695347012927],[-73.230302095365346,5.3247618004168089],[-73.23027843060504,5.32461225215377],[-73.230314405285526,5.3244807164119834],[-73.230375921611426,5.3244165551799369],[-73.230451843277933,5.324337367175815],[-73.230559419281747,5.324301590346181],[-73.230648835275474,5.3242718497660917],[-73.230798145218216,5.3241763660465153],[-73.230905699638299,5.324062875201605],[-73.230911817726167,5.3239492467603782],[-73.230911949027188,5.3238535561966955],[-73.23100759642341,5.3237280881807578],[-73.231133023070527,5.3236325711862378],[-73.231312121257361,5.3235670312935213],[-73.231464163340434,5.3235418493769089],[-73.23149116728348,5.3235373752497139],[-73.231670223202173,5.3235017324190608],[-73.23179566963438,5.3233942526426858],[-73.23184955881004,5.3232627411825888],[-73.231837819959367,5.3231191869010104],[-73.231844053160501,5.3229218297786929],[-73.231850253986011,5.3227543751143571],[-73.231944903134718,5.3226199543474877],[-73.231963836561761,5.3225930529271182],[-73.231991104006227,5.3225678943928756],[-73.232119169264195,5.3224497270733195],[-73.232190859620459,5.3223900138880822],[-73.232399779326329,5.3223304976543773],[-73.232566909335333,5.3222888617416402],[-73.232769847650331,5.3222353089124113],[-73.233014465045471,5.3222535903310018],[-73.233075830285316,5.3222260117211135],[-73.233133870731535,5.3221999286838013],[-73.233179132710745,5.3221647472053633],[-73.233295154247912,5.3220745497007442],[-73.233504145899587,5.3219611991500528],[-73.233647431283885,5.3219015920848278],[-73.233731043952503,5.3218418968860988],[-73.233844532099454,5.3217583237876624],[-73.233969949753316,5.3216747587831605],[-73.234137163399339,5.3215733116590513],[-73.234334212953513,5.3214659308081309],[-73.234501431096135,5.3213585067896929],[-73.23459113936957,5.3212091051161678],[-73.234645048330265,5.3210536761862386],[-73.234758623711457,5.3208983326919679],[-73.234806535093469,5.3208536372856088],[-73.234848242052692,5.3208147272179076],[-73.234917061772933,5.3207803533306901],[-73.234931839432818,5.3207729770912806],[-73.235009414053195,5.3207670982230297],[-73.235122817663864,5.3207373513477592],[-73.235206465406009,5.3206597146741501],[-73.235254322828723,5.3205700675546268],[-73.235326043761859,5.3204804528106706],[-73.235487338070129,5.3203431209383325],[-73.235588881421677,5.3202655076470933],[-73.235684519824702,5.3201400369331964],[-73.235803983067342,5.3200445100461593],[-73.235835587042686,5.3200293079062817],[-73.235898036864853,5.3199992768451807],[-73.235965190141371,5.3199669803918823],[-73.236078635120862,5.3199133106508043],[-73.236210089024325,5.3197759266177513],[-73.236371516432314,5.3195428942892136],[-73.236544761831283,5.319387629035873],[-73.236694001626859,5.31933998385324],[-73.236825271169266,5.319340162818321],[-73.23702813573982,5.3193404389101602],[-73.237111803267055,5.3192651710508585],[-73.237147625062789,5.3192329510399077],[-73.237189584731539,5.3190894687040782],[-73.237241533170163,5.319016173058003],[-73.237291218015287,5.3189460682065146],[-73.237380767108675,5.3189043261737652],[-73.237418597989858,5.3188993870970762],[-73.23760755184702,5.3188747339818292],[-73.2379119184003,5.3188273001398443],[-73.238150653329967,5.3187857622531851],[-73.238383359204647,5.3187860779152061],[-73.238586281331777,5.3187444905658481],[-73.238741539390503,5.3186549891364621],[-73.23888489492191,5.3185415459556111],[-73.239081887818827,5.3184760240493461],[-73.239243117375906,5.3183865316132142],[-73.239392405734918,5.3182970229892703],[-73.239559647259853,5.3181716476034921],[-73.23967553120076,5.3181245078397978],[-73.239720846240004,5.3181060789324306],[-73.239911823571788,5.318070460383467],[-73.240096817713948,5.3180587494118186],[-73.240281848728273,5.3180111527925078],[-73.240431057047601,5.31798145268192],[-73.240639877828073,5.3179936987502288],[-73.240771145571898,5.31799387681599],[-73.240820063295246,5.317982181132777],[-73.240920369179662,5.3179581926165724],[-73.241063684241624,5.3178746590883179],[-73.241195066199282,5.3177911012783738],[-73.241275758769234,5.3177158190298996],[-73.241284681842558,5.3177074949049938],[-73.241463848377862,5.31758812339325],[-73.241643023007043,5.3174567810056601],[-73.241778135352604,5.3173847866785877],[-73.2419117233473,5.3173136053386543],[-73.242126655021082,5.3172241848483282],[-73.242326898067859,5.3171421540872075],[-73.242359487700185,5.3171288099466665],[-73.242616174896511,5.3170394443149576],[-73.242783303106933,5.3169978066035242],[-73.242974402746427,5.3168784503802158],[-73.243147581595565,5.316771031757753],[-73.243273643164059,5.316734051635251],[-73.243350536997639,5.3167114966383338],[-73.243547422875224,5.3167237247201911],[-73.243708489655035,5.3167478670204673],[-73.243845618280602,5.3168317791633513],[-73.243935013589976,5.3169096496606585],[-73.244048347053536,5.3169397068020885],[-73.24417966336074,5.3169040073141218],[-73.24419095884565,5.3169020683757822],[-73.244352737888505,5.3168743278879447],[-73.244531775820747,5.3168506550337611],[-73.244770522441627,5.3167911666790246],[-73.245057016767873,5.3167257643825678],[-73.245098910786055,5.3167181911916259],[-73.245188316887266,5.3167020168846193],[-73.245403166722724,5.3166724058069121],[-73.24552232509518,5.3166062588717864],[-73.245564386387287,5.3165829088741816],[-73.245767509962548,5.3163977807330411],[-73.245887021768624,5.316266357406505],[-73.246078224830171,5.3160692475977385],[-73.246215641238791,5.3159378539488671],[-73.246400736105045,5.3158424160946538],[-73.246510739379062,5.3158083596680967],[-73.246573842109115,5.3157888218966605],[-73.246752905222365,5.3157471895812023],[-73.246938031564866,5.3156278261632792],[-73.247093329193774,5.3155084186786326],[-73.247212824811982,5.3153889662278857],[-73.247284679744155,5.3152036600209271],[-73.247338603094022,5.3150362692085196],[-73.247404524299327,5.3148210416578081],[-73.247512189336021,5.3146238212324306],[-73.247667533729668,5.3144685281001216],[-73.24782880015897,5.3143491314073117],[-73.248013879736732,5.3142656419458945],[-73.248210913103094,5.314170217581534],[-73.248384082059715,5.3140747599422866],[-73.248418410980833,5.3140419319896068],[-73.248521486777179,5.3139433680919979],[-73.248629112243691,5.3137760474266997],[-73.24877847704505,5.3136327089823681],[-73.248957657070207,5.3135013728900731],[-73.249163958849579,5.3134346081207013],[-73.24917852157148,5.3134298947738898],[-73.249411322774279,5.3133584409393393],[-73.249560488825466,5.3133586423874704],[-73.249715680334361,5.313316978595708],[-73.249870945587645,5.3132214948761316],[-73.250002356323648,5.3131140213949948],[-73.250169616734411,5.3129707036351306],[-73.250420404378133,5.3128334769834282],[-73.250617433247896,5.3127440286140768],[-73.250642001826861,5.3127369509495566],[-73.250886033763436,5.3126666365560595],[-73.251262075384432,5.3125654646245266],[-73.251374882744585,5.3125444240859565],[-73.251453064407372,5.3125298415789644],[-73.251679835655864,5.3125002367965521],[-73.251705579648728,5.3125342761359775],[-73.25181561439905,5.3125470096368304],[-73.251940886362775,5.3125722967741353],[-73.25210335968228,5.3125905161394371],[-73.252155183115178,5.3126003286423042],[-73.252294250679086,5.3126266589931674],[-73.252543498683451,5.3126269917423201],[-73.252556784368039,5.3126270106280913],[-73.252861086170128,5.3126274162223126],[-73.253052041918181,5.3126157097472628],[-73.253296735755725,5.3125741718606037],[-73.253541470962091,5.3125027243212912],[-73.253833987148766,5.3123894780919727],[-73.254186135581676,5.3123062188569747],[-73.2544069281372,5.3122885750577211],[-73.254651605786933,5.3122589990535971],[-73.254973806795704,5.3122654058238936],[-73.255224413675705,5.3122597625780372],[-73.255486950062675,5.3122601133136413],[-73.255809196037546,5.3122306308389966],[-73.256006187135768,5.3121651071340352],[-73.256197227420046,5.3120876089560625],[-73.25622330506144,5.3120745867728374],[-73.256412177979598,5.3119802406956182],[-73.256740527653164,5.311843114767953],[-73.257074797563803,5.3117478702680501],[-73.257277699006579,5.3117182367072928],[-73.25743885481927,5.3116825641990317],[-73.257737282249764,5.311617171795092],[-73.257934277844583,5.3115456586053256],[-73.258113464164978,5.3114083447193821],[-73.258388162983294,5.311235255802444],[-73.258698680000066,5.3110502670562028],[-73.25904504759086,5.3108294331318575],[-73.259343628805368,5.3106444263992216],[-73.259582477049662,5.3105071799624284],[-73.259964607080917,5.3103103183665326],[-73.260191550999252,5.3101551169651202],[-73.260364749633425,5.3100297469753173],[-73.260550016270201,5.3098027221179791],[-73.260753180314964,5.3095817011346753],[-73.261075865159,5.3092172949422434],[-73.261284989910337,5.3089962811534974],[-73.261476150703743,5.3088290684068511],[-73.261568263764332,5.3087768996342675],[-73.261655278568185,5.3087276293766195],[-73.261840396816808,5.3086202206467306],[-73.261983778428601,5.3084828456068749],[-73.262151083805406,5.308303649393963],[-73.262342350718882,5.308046722977906],[-73.262635321962478,5.307592564445315],[-73.26285047936608,5.3073177307287551],[-73.263232780268538,5.3069952689165802],[-73.26372867543796,5.3064935236572524],[-73.263872103814492,5.3063202719630453],[-73.264188791979109,5.3059738054467971],[-73.264312762623831,5.3058615430758209],[-73.265013180713652,5.3052272809143233],[-73.265544780766959,5.3047913813172158],[-73.265932892189198,5.3045825533421862],[-73.26600563025562,5.3045236936135893],[-73.266058327829512,5.3044810513594598],[-73.266213603874689,5.3043735922674955],[-73.266356927929849,5.3042780905614677],[-73.266458374154581,5.3042722449681605],[-73.26654194005846,5.3042424441335356],[-73.266649402747703,5.3041947449915483],[-73.266870301423239,5.3040933581220315],[-73.26702555498531,5.3040038485987679],[-73.267216662718795,5.3038725197010876],[-73.267348021294083,5.3038009183777035],[-73.267503290144703,5.3036994451733221],[-73.267789910376052,5.3035323646269603],[-73.26799299887773,5.3033651662694297],[-73.268219955386598,5.3031920126013574],[-73.268500650884278,5.3029950116105624],[-73.268757383946081,5.3028697567339123],[-73.268978284420257,5.302768368065756],[-73.269199175901235,5.3026729589898878],[-73.26945589367449,5.3025596641971902],[-73.269778305124646,5.3023926187244115],[-73.270005238251088,5.3022433897207293],[-73.270160534980675,5.3021180008450983],[-73.270280061175868,5.3019686297485009],[-73.270560894269806,5.3016639790094473],[-73.270632694343306,5.3015085680660263],[-73.27059112138312,5.3013589892260029],[-73.270430297420262,5.30114347029496],[-73.270150241340502,5.3008560253853148],[-73.270013183761364,5.3007182816234604],[-73.269822489716091,5.3005386042732425],[-73.269572195800151,5.3002990482625023],[-73.269529555344661,5.3002454783461985],[-73.26940539943962,5.3000895008298698],[-73.269371007565894,5.3000345000921811],[-73.2691668803472,5.2997947992906234],[-73.268964236110548,5.2994042273232935],[-73.268915286910897,5.2993098839440336],[-73.268898313106604,5.2992771693059808],[-73.268775552050045,5.2987822157267033],[-73.268641764405857,5.2981410638590773],[-73.268597918858802,5.2980681639147065],[-73.268350708718174,5.2976571368674286],[-73.268183727996586,5.2973832402444145],[-73.268138013658358,5.2973082565708296],[-73.267882616989141,5.2970399177580703],[-73.267645070963226,5.2967903334072162],[-73.267440217092314,5.2965844507118618],[-73.267253439594526,5.2963967370198475],[-73.267219327409975,5.2963624539641501],[-73.266897650705971,5.2960114557641305],[-73.266827239185716,5.2959346248831025],[-73.266491696734363,5.2957270406704424],[-73.266298540345304,5.2956075423542188],[-73.266244345400196,5.2955740138297074],[-73.265605408562692,5.295179593663363],[-73.265534706561425,5.2951069221467719],[-73.265112458673002,5.2946729129246251],[-73.264762717725205,5.2943622843919798],[-73.264630621705805,5.2942449606364903],[-73.263722561846691,5.2937602215570223],[-73.263519006596823,5.2936889511842082],[-73.263480129804122,5.2936753390457056],[-73.263464657867644,5.2936699224290464],[-73.262758192736385,5.2934440891734198],[-73.26201819098668,5.2931282499687882],[-73.261390403044629,5.2927900662086245],[-73.260807519151626,5.2924294551552862],[-73.260269595965042,5.2920014237267878],[-73.259922167174238,5.2917423272466522],[-73.259597304172189,5.2915300548681898],[-73.260259337398452,5.2912704718548298],[-73.261280799069596,5.2908220096280729],[-73.26187572488476,5.2905529072908735],[-73.262639117101514,5.290137836891688],[-73.263189431147282,5.2896662611890406],[-73.263750966933515,5.2891946998755657],[-73.264267524026991,5.2888017923688722],[-73.264716961118836,5.2882626119300653],[-73.265143898971701,5.2877683814057264],[-73.265467414789327,5.2874355980744667],[-73.265615823611313,5.2872829381570909],[-73.265619476657491,5.2872791798902767],[-73.26561810339274,5.2872792338496311],[-73.26490891691293,5.2873070220015279],[-73.263741952129351,5.2875079026676417],[-73.263122603425359,5.2875510377502337],[-73.262474166149786,5.2875961990054066],[-73.260735178585605,5.2877063623587901],[-73.25999299058401,5.2876752233329398],[-73.259539144116161,5.287656181987245],[-73.259074964438014,5.2876367071683603],[-73.258797023563773,5.2876391596195731],[-73.256886365313449,5.2876560264045338],[-73.254643682759706,5.2876758222814146],[-73.251468762972991,5.2877840520923769],[-73.251404314857211,5.2877889354110721],[-73.248697566839212,5.2879940141124848],[-73.248686376574994,5.2879945698935558],[-73.247688487933317,5.2880441720009799],[-73.246756376605447,5.2880905041734536],[-73.246274253653837,5.2881144693073452],[-73.244412100338138,5.2880557417790897],[-73.243189401869358,5.2879866270812386],[-73.242508668140488,5.2877638910907763],[-73.241630540417077,5.2873154873199155],[-73.241597327554587,5.2872985279047953],[-73.24157305934915,5.2872800666218041],[-73.241399715024784,5.2871482044261597],[-73.241001713758067,5.2868454458607061],[-73.240768026723003,5.2866676822677618],[-73.240190229395523,5.2863656980185851],[-73.239344306394571,5.2859235787102534],[-73.239258395058869,5.2858771251292751],[-73.239153714872032,5.285820522698998],[-73.238661669700264,5.2855544681642073],[-73.238405465439826,5.2854159347975838],[-73.238272367575689,5.2853439683494798],[-73.237785950361285,5.2852017819367347],[-73.237375259660439,5.2851734703793909],[-73.237020227101766,5.2851489944305854],[-73.2367876228505,5.2851329586192151],[-73.235632120825699,5.285153885843215],[-73.234790864406818,5.2850740242468532],[-73.234488542012571,5.2850861408127798],[-73.233720645091637,5.2851169183111892],[-73.233627221718848,5.2851206621888309],[-73.233508793595888,5.2851944542607043],[-73.233287327448181,5.2853324507320849],[-73.233234646062044,5.2853652768860684],[-73.233014772613615,5.2855022796065896],[-73.232984129114243,5.2855213740122622],[-73.232826740561563,5.2856355312547976],[-73.232535401587484,5.2858468485532626],[-73.231715222579396,5.2864417491874178],[-73.231649938993428,5.2864966060336087],[-73.23143822239598,5.286674503625477],[-73.231303604677578,5.2867876203524702],[-73.231013754980779,5.287031171151682],[-73.230940283067582,5.2870929078114841],[-73.23089255604657,5.2871640558765307],[-73.230838281061779,5.2872449651830493],[-73.230773796973097,5.2873410928172007],[-73.230722436691053,5.2874464636834091],[-73.230111371642465,5.288700140199353],[-73.229826694846054,5.2892841896136815],[-73.229605887901357,5.2896282909129582],[-73.229163413360823,5.2903178308033034],[-73.229112843582811,5.2904065660102333],[-73.228846451802269,5.2908740129254284],[-73.228702362424031,5.2911268510234208],[-73.227636933797442,5.2923369949563721],[-73.227409072570595,5.2925146443354265],[-73.227096229007714,5.2927585503668411],[-73.227028537037313,5.2928113252824573],[-73.22616397109033,5.2933611473990823],[-73.225513005820517,5.2935851559302591],[-73.225056784243179,5.293658287000369],[-73.225037170029339,5.293661431030273],[-73.22497409787627,5.2936715412087096],[-73.224955034047525,5.2938115971275579],[-73.22494865965291,5.2938584284237891],[-73.224849751314935,5.2945850572546647],[-73.224669290655186,5.2952932553794767],[-73.224645332715909,5.2953431929340695],[-73.224493290632836,5.2956601077278265],[-73.222853466814001,5.2972568756043756],[-73.221414330307084,5.2986582261962099],[-73.221349766178719,5.2987210942031879],[-73.221289225617227,5.2987800447633049],[-73.219998577971978,5.3006256271710299],[-73.219936942935533,5.300713763429485],[-73.219891249281716,5.300754553979516],[-73.219614431660659,5.3010016669933862],[-73.219396278615307,5.3011964106858613],[-73.218961719907384,5.3015843386463644],[-73.218375958183856,5.3021072467520867],[-73.21818610680333,5.302276725790307],[-73.218001843809986,5.3024412162891394],[-73.21789411761938,5.3025373843928492],[-73.217842976771919,5.3025797046896628],[-73.217654171302911,5.3027359484053704],[-73.216618843884476,5.3035927190288135],[-73.215531618389434,5.3044924403738491],[-73.21365284110567,5.3053226630105428],[-73.209380618021044,5.308562950020189],[-73.207623581962707,5.3096526864223961],[-73.206546413586068,5.3110624510713365],[-73.206274302117322,5.311389798000846],[-73.205818712763346,5.3117786135921961],[-73.204533884631019,5.3132416028177545],[-73.204442970366756,5.3134767233721618],[-73.204151124174984,5.3137428183763973],[-73.203960610893432,5.313909395302403],[-73.203737882996847,5.3141814752949017],[-73.203637256054492,5.3143733933175099],[-73.203395593831544,5.3145606960193277],[-73.20321006908938,5.3147296471555592],[-73.203004072180136,5.3148160270380913],[-73.202715581358973,5.3150013440368298],[-73.202389810041666,5.3153475677361257],[-73.201437630342355,5.3160808542480709],[-73.201228222304564,5.3162018292510425],[-73.200831859602602,5.3164308092345323],[-73.200300432219137,5.3166199033858561],[-73.200035738358622,5.3166705603981086],[-73.199689720604056,5.3166766811839352],[-73.199682722979219,5.316676805290399],[-73.199464412552572,5.3167342746671125],[-73.198983055823305,5.3169859202640737],[-73.19852488811307,5.317116426282098],[-73.197474711089001,5.3173959175875893],[-73.197414789261074,5.3174086717728528],[-73.196819822976408,5.3175353080081322],[-73.196674810893796,5.317365237215995],[-73.196597851409649,5.3172749776581441],[-73.196468172767936,5.317170687777093],[-73.196466482042467,5.317169328901457],[-73.196248260648645,5.3169938307007669],[-73.195832697420997,5.3167786229351464],[-73.195776621094126,5.3167674092885591],[-73.19541694713439,5.3166954824106369],[-73.194877583233847,5.316674074049331],[-73.194371049983943,5.3167270054469782],[-73.194045643791412,5.3168132081630688],[-73.192760858826546,5.3172081427416629],[-73.192369142921564,5.3172854322769467],[-73.192002649402696,5.3173096681067591],[-73.191440162133745,5.3171862010823361],[-73.191278251789868,5.3171105231321576],[-73.191092923099859,5.317139151250899],[-73.190833218678051,5.3173492607598405],[-73.189991643899191,5.3184665209132618],[-73.189727713563116,5.3187509171211786],[-73.189253342767529,5.3190317628056505],[-73.189171377656919,5.3190802893239493],[-73.188812613811024,5.3194553461873397],[-73.187942550308435,5.3203373122172479],[-73.187262814827022,5.3205757072031474],[-73.186735613357826,5.3206822507852962],[-73.186340298366019,5.320706439850369],[-73.185928695752693,5.3206026670794699],[-73.185632331366946,5.3205320765941337],[-73.18537695268418,5.320597740593314],[-73.185176931769945,5.3207556309676534],[-73.185014543886041,5.3209551797377799],[-73.184939847995565,5.3210469708410528],[-73.184642659830843,5.3215500605869011],[-73.184451379427571,5.3217120626616179],[-73.184399427391611,5.3217560619926871],[-73.184271556387159,5.3219127113026161],[-73.184616706295913,5.321994266322406],[-73.184773576839063,5.321973531553283],[-73.184915926928454,5.3219547168367853],[-73.18515551891204,5.3217751447072033],[-73.185358210812751,5.3217754387854939],[-73.185432902206628,5.3217755476034654],[-73.185881097334743,5.3222039459553798],[-73.186148558409229,5.3223281468265782],[-73.186349923809871,5.3223271368879068],[-73.186601481273328,5.3223329312198757],[-73.187041773159251,5.3225316697008225],[-73.187449950254972,5.3225614903205951],[-73.187746991830181,5.3226784939174081],[-73.187854458116703,5.3229218072956428],[-73.187865337215499,5.32294643702852],[-73.187874897908159,5.3229680864080819],[-73.187864144714467,5.3233211521495036],[-73.188040828221631,5.3235814186476205],[-73.188343972596215,5.3236189356654222],[-73.18851409644833,5.3237554446581044],[-73.188571446215235,5.3239618867317517],[-73.188542413401592,5.324318911288799],[-73.188370811963352,5.3249006098752716],[-73.188341987792455,5.3249983176183378],[-73.188258385016411,5.3253590806571083],[-73.188192481797557,5.3254314221225059],[-73.188221050560969,5.3255148477321086],[-73.188251326237662,5.3255995171040809],[-73.18813491079743,5.3257324863652116],[-73.188083158411018,5.3257915979039581],[-73.188117216636215,5.3257701697575612],[-73.188154917115696,5.3258623151937172],[-73.18819662137696,5.325964241656493],[-73.188200465978696,5.3259736395718846],[-73.18831509536534,5.3260658308734605],[-73.188349457561401,5.3260934688385646],[-73.188504459313322,5.3261893896286665],[-73.188733143419768,5.3263223471986407],[-73.18888601917439,5.3264112289950845],[-73.189023062364413,5.3265430012585284],[-73.189058665624884,5.3266806038268442],[-73.189112143810348,5.3268361811448699],[-73.189231321967895,5.3269440116568489],[-73.18926732362803,5.3269690011185276],[-73.189481686930264,5.3271178110381925],[-73.189620832735216,5.3271858051808181],[-73.189690377309034,5.3272197887623065],[-73.189698822842388,5.3272238779796339],[-73.189851364049161,5.327297768976905],[-73.190018360059241,5.327351835319007],[-73.190119710955855,5.3274117850259017],[-73.190119505011126,5.3275553204217658],[-73.190076986863403,5.3276084361804124],[-73.189999957232203,5.3277046708339526],[-73.189916224953777,5.3278361238380967],[-73.189820572161636,5.327967563352388],[-73.189641358861593,5.3281108397434878],[-73.189533795448256,5.3282243233938402],[-73.189476862966785,5.3283025500227268],[-73.189438133662918,5.3283557602102292],[-73.189433825010951,5.3284356388936658],[-73.189432005682477,5.3284693877520795],[-73.189431862690299,5.3285695317585464],[-73.189431833012634,5.3285889993828732],[-73.189473409570155,5.3287206349493772],[-73.189616426057171,5.328852417105395],[-73.189705878023801,5.3288884322553827],[-73.189751413396948,5.3289178625693694],[-73.189789341404946,5.3289423789876764],[-73.189890641040222,5.3290322374478478],[-73.190021841334897,5.3290802738356433],[-73.190170978607739,5.3291044053440828],[-73.190314175858475,5.3291105962770189],[-73.190523072181975,5.3290690368066294],[-73.190684252276355,5.3290214177043254],[-73.190851375090858,5.3289797970800237],[-73.191006521633653,5.3289740351236787],[-73.191167602802579,5.3289922149188556],[-73.191316713095773,5.3290342923987168],[-73.191356085414952,5.329061156047544],[-73.191483620972292,5.3291481690528144],[-73.191555036135981,5.3292798477867791],[-73.191632427294621,5.3294055487271521],[-73.191654089264773,5.3295105463746495],[-73.191662052761501,5.3295491281897398],[-73.191703647305417,5.3296688108669628],[-73.191786964996425,5.3298244313524492],[-73.191890243140165,5.3299227839094101],[-73.191900171655561,5.3299322429786571],[-73.192013399898428,5.3300340813078719],[-73.192114768781494,5.3300820754274696],[-73.192263859289653,5.3301361147899229],[-73.192401040075879,5.3301781769813488],[-73.192532265551563,5.3302082655990262],[-73.192669456230362,5.3302443499968035],[-73.192698847873487,5.3302622950689056],[-73.192836372200759,5.3303462647683659],[-73.192925747725042,5.3304361052420859],[-73.192976045008436,5.3305288397341997],[-73.192997167385329,5.3305677848754272],[-73.19308645567537,5.3307174266679453],[-73.193122079620252,5.3308370895600774],[-73.193127327164405,5.330845535093431],[-73.193211376903491,5.3309807652501604],[-73.193227594377959,5.3309929897347388],[-73.193330592832581,5.3310706398981438],[-73.193437958395009,5.3310947192459253],[-73.193551349415202,5.3310829192413962],[-73.193700499278577,5.3310950951625387],[-73.193843513966954,5.3312268773185565],[-73.193926832557224,5.3313824960054603],[-73.193926980046058,5.3313830895579599],[-73.193970618749006,5.3315591354457865],[-73.193980225307087,5.3315978836354816],[-73.194033702593288,5.3317534609535073],[-73.194051834724348,5.3318163946109962],[-73.19408713940993,5.3319389380316125],[-73.194122641946308,5.3321483136937786],[-73.194152226044366,5.3323217947150852],[-73.194152044381326,5.3324476368489968],[-73.194152012005702,5.3324713186964345],[-73.194187549615663,5.3326567705935304],[-73.194288782701108,5.3327944756845795],[-73.194431856744757,5.3328843926007039],[-73.194545138047658,5.3329503443829367],[-73.194607972779693,5.3329954615713291],[-73.194670318280544,5.3330402361180518],[-73.194729824621675,5.3331479731005516],[-73.194745417966601,5.33326647406858],[-73.194753438120642,5.3333274301168672],[-73.194735277211237,5.3335128037729191],[-73.194731983893917,5.333542910377048],[-73.194711089045484,5.3337340567813385],[-73.194669023256779,5.3339433218268937],[-73.194567355798767,5.3341046530073868],[-73.194546388105266,5.334126609955149],[-73.194441859903861,5.3342360574481518],[-73.194292478015427,5.3343853565990003],[-73.194196866592108,5.3344868918566135],[-73.19418221123999,5.3345073981978999],[-73.194107182600362,5.3346123616711907],[-73.194103400051858,5.3346207847214941],[-73.194029365163033,5.3347856907071218],[-73.193957562391574,5.3349231367933498],[-73.193850281365371,5.3350864878511857],[-73.193831989154944,5.3351143452508722],[-73.193796000984605,5.3351484151672821],[-73.193718461437811,5.3352218313224853],[-73.193545175569341,5.3353950290573948],[-73.193538686061459,5.3354023162639237],[-73.19344954615957,5.3355025430079763],[-73.193387313973346,5.3356268490998673],[-73.193377743388112,5.335645975881107],[-73.193329780744762,5.3358014093076349],[-73.19332955861222,5.3359569065860342],[-73.193329369754565,5.3360884800993063],[-73.193370957103923,5.3362141405701777],[-73.193490002161809,5.3364176508539458],[-73.193567407709679,5.336531398904981],[-73.193686513022101,5.336699031635078],[-73.193745988786304,5.3368306941812307],[-73.19379355572795,5.3369503750598142],[-73.193822593038192,5.3371206553939601],[-73.193856535250859,5.33713529096093],[-73.194096266629344,5.3372386806206578],[-73.194180138302727,5.3373577220812649],[-73.194217491643883,5.3373017329886352],[-73.194263142130239,5.3373091200199383],[-73.19436663521202,5.3373258707923696],[-73.194497680823247,5.3374815578276866],[-73.194712144849575,5.3377210931539594],[-73.194819356627988,5.3378588081375256],[-73.19496240908785,5.3379666647298336],[-73.195147323190383,5.3380087952697295],[-73.195338315810602,5.3379731803180448],[-73.195577007572808,5.3379615628758756],[-73.195800183331755,5.3380225728834603],[-73.195928916786045,5.3380577651537919],[-73.196072030399819,5.3381237556068868],[-73.196227117587341,5.3381598669843129],[-73.196253852633163,5.3381567517327539],[-73.196430029821954,5.3381362319016148],[-73.196579147309762,5.3381723342858436],[-73.196668592081835,5.3382143254308403],[-73.196835532333921,5.3383102534155],[-73.196906601258604,5.3383638467142305],[-73.19697858389452,5.3384181100078081],[-73.197074007359504,5.3384481572567211],[-73.197223150028321,5.3384722860672014],[-73.197354440255197,5.3384605211361986],[-73.197509528342039,5.3384966226211077],[-73.197610756031509,5.3386462886953154],[-73.197632849676211,5.3386913950918711],[-73.197691078080766,5.3388102593860367],[-73.19773869718307,5.3388940627108923],[-73.197743152424493,5.3389955440092081]]]},"properties":{"OBJECTID_1":1,"fid_1":19043,"Name":" ","descriptio":" ","timestamp":" ","begin":" ","end":" ","altitudeMo":" ","tessellate":0,"extrude":0,"visibility":0,"drawOrder":0,"icon":" ","OBJECTID":"19011","DPTOMPIO":"15621","CODIGO_VER":"15621007","NOM_DEP":"BOYACÁ","NOMB_MPIO":"RONDÓN","NOMBRE_VER":"RICAURTE","VIGENCIA":"1994","FUENTE":"CATASTRO IGAC","DESCRIPCIO":"NULL","SEUDONIMOS":"1","AREA_HA":2616.1876720499999,"COD_DPTO":"15","OBSERVACIO":" ","CONSEJE":"0","ORIG_FID":"73010","SHAPE_Leng":0.24341479983700001,"layer":"CRVeredas_2020","path":"C:/Users/matmo/OneDrive/Documentos/DANE/2024/Veredas/CRVeredas_2020_ShapeFile (1)/ShapeFile/CRVeredas_2020.shp","Shape_Length":0.24341480327231987,"Shape_Area":0.0021338667929072562}}]}