{"type":"FeatureCollection","features":[{"type":"Feature","id":1,"geometry":{"type":"LineString","coordinates":[[-73.200638834286153,5.3164994917875772],[-73.200731312559995,5.3166306239019159],[-73.200804102179688,5.3167969863044959],[-73.200853656650452,5.3170043106800184],[-73.200914250156956,5.317463162691098],[-73.20095285929952,5.3176574847177003],[-73.200988170216831,5.3177710899747916],[-73.201073747702935,5.3179848444413045],[-73.201106892676407,5.318051298471004],[-73.20114194017026,5.3180986661229692],[-73.201184268861894,5.3181330209743569],[-73.201238624710015,5.318158287408286],[-73.201390664466246,5.31818434007499],[-73.201789576539952,5.3181982427637555],[-73.202282974526028,5.3181743219013287],[-73.202637948223895,5.3181822708159476],[-73.202774062006753,5.3182001914281143],[-73.202848719366628,5.3182253641610222],[-73.202909135430787,5.3182615030498717],[-73.20309447707092,5.3184736840444833],[-73.203258452886445,5.3185841787806893],[-73.203374571512256,5.3186383143842244],[-73.203498896396155,5.3186810504684097],[-73.203621754924669,5.318709814564663],[-73.203760481127773,5.3187284083229818],[-73.203986619226683,5.318728875659704],[-73.204082647130193,5.3187126921770425],[-73.204166559179228,5.318685662528928],[-73.20424993973252,5.3186321986152665],[-73.204418800457901,5.3184609356302239],[-73.204463552666184,5.3184322437496849],[-73.204511489594879,5.3184151955705099],[-73.204605060188229,5.3183975539478965],[-73.204696969883969,5.3183948654337261],[-73.204776150215437,5.3184072947956942],[-73.204839952832657,5.31843430081733],[-73.204930248344766,5.3185085920277864],[-73.205004495660432,5.3186094216345285],[-73.205044673306901,5.318712893423827],[-73.205057641839304,5.3188284271777997],[-73.205048075542308,5.3189315725066937],[-73.205016353664234,5.3190661190840824],[-73.204997417587677,5.3191050869531127],[-73.204944363295809,5.3191693204587862],[-73.204909380078448,5.319238164409553],[-73.204846772671317,5.3194018951353641],[-73.204815299579806,5.3195162761938519],[-73.204800647464907,5.3196200802450777],[-73.204798093235581,5.3197185488651231],[-73.20480832351484,5.3198320653594751],[-73.204831966656329,5.3199604258910913],[-73.204869023916729,5.3200910200523435],[-73.204908638379578,5.3202003673528147],[-73.204998155282581,5.3204474649659863],[-73.20516319726913,5.3208138620479328],[-73.205242697802916,5.3209578461480902],[-73.205315786591868,5.3210654211187967],[-73.205394927450499,5.3211564993571869],[-73.205482750773371,5.3212346104268651],[-73.205615357048245,5.3213217340160544],[-73.205768113396388,5.3213902746210602],[-73.206061670698787,5.3214750021907502],[-73.206388475002498,5.3215505335427711],[-73.20670784626266,5.3215975521704433],[-73.207125444164305,5.321606183324052],[-73.20732171868697,5.3216188046599813],[-73.207558457284648,5.3216609065668763],[-73.207664985180756,5.3216955633159051],[-73.207764925805293,5.3217416878318389],[-73.207888401911035,5.3218138433251241],[-73.208028171684674,5.3219101841956595],[-73.208180557250557,5.3219811596911146],[-73.208348376380314,5.3220263281106082],[-73.208659401750722,5.322076369453935],[-73.208853622718095,5.3221195287226575],[-73.209017961256862,5.3221726911788201],[-73.209162416482698,5.3222452130597082],[-73.209245714618135,5.3223031732580202],[-73.209322361151635,5.3223718555398687],[-73.209393734671607,5.3224508603300125],[-73.209457796903862,5.3225388860145024],[-73.209564738959045,5.3227320555768074],[-73.20973532490973,5.323094523463034],[-73.209839327865609,5.323267992819658],[-73.209860968657225,5.3233217366674381],[-73.209870468275469,5.323378371629742],[-73.209860761972081,5.3235962722182508],[-73.209869334675716,5.3236779228578976],[-73.209917564018639,5.3237902660467],[-73.210000288297849,5.3239070854141799],[-73.210118354367438,5.3240281308741837],[-73.210237695809582,5.3241212165175416],[-73.210336131453801,5.3241660949059302],[-73.210578936556303,5.3242471044042228],[-73.21068107250214,5.3243004740773392],[-73.210748890746444,5.3243607380697267],[-73.210880580568855,5.3245206117523329],[-73.210996205945463,5.3246218137288297],[-73.211175144323306,5.3247491659402479],[-73.21133837032589,5.3248309888552212],[-73.211469058707124,5.324862931550788],[-73.211578339308659,5.3248524556469388],[-73.211702158628214,5.3247872669228498],[-73.211824184422795,5.3246788754640342],[-73.211894196011912,5.3245863522075645],[-73.211930909347203,5.3245036669902657],[-73.211936961444422,5.3244297528095252],[-73.211925414072127,5.3242419411343649],[-73.211941019179207,5.3241558666783169],[-73.211986361387986,5.324078187714874],[-73.212088524646006,5.3240028612181405],[-73.212244617717403,5.3239215883176731],[-73.212379400895273,5.323888652929698],[-73.212528357127425,5.3238933709592295],[-73.212663248879053,5.3239399975409833],[-73.212756855864498,5.3240108699711257],[-73.212856823808934,5.3241526938083927],[-73.212870907761285,5.3241726733531918],[-73.213022796753975,5.3243481356002409],[-73.21323310108626,5.3246296835672648],[-73.213417219098403,5.3248517814304073],[-73.213585116458418,5.3250183598362915],[-73.213788061076485,5.3251803711173107],[-73.213917280219945,5.3253025658202713],[-73.21400785009341,5.3254436171173669],[-73.214148089241704,5.3257380293405721],[-73.214216547817031,5.3258365130458349],[-73.214306334508407,5.3259082978905692],[-73.214434752793139,5.3259490365128013],[-73.214593213096094,5.3259631546609976],[-73.214868778182876,5.3259628277974524],[-73.215166602786908,5.3259893826590314],[-73.215350816660646,5.3259831008563987],[-73.215439487658401,5.3259619541740735],[-73.215526501527279,5.3259192100214685],[-73.215733301549122,5.3257527426744824],[-73.215840015112548,5.325682312785962],[-73.215945860115127,5.3256379067151514],[-73.21606887082811,5.3256006722300864],[-73.21627710308654,5.3255621932774915],[-73.216503239169228,5.3255450887963924],[-73.216759645102158,5.3255464701507993],[-73.216984913310228,5.3255675245916896],[-73.217151463512309,5.325607324288578],[-73.217286826322749,5.3256692669343924],[-73.217448839006877,5.3257873152110289],[-73.217696518950291,5.3259952711276224],[-73.217872857899664,5.3261127015291887],[-73.21805895685246,5.3262366318139778],[-73.218437919563868,5.3264616256640585],[-73.218707230866883,5.3266337143110531],[-73.218805144690108,5.3266734628026828],[-73.218881362577619,5.3266771073341399],[-73.218948415968057,5.3266423429261573],[-73.219013489956623,5.3265610083731625],[-73.21908912534974,5.3264088223560968],[-73.219185477026556,5.3261755609938666],[-73.219403617685643,5.3257806705588333],[-73.219493941310731,5.3256413412465671],[-73.219589190966062,5.3255524752599515],[-73.219700608294033,5.325507919957241],[-73.219842337274159,5.3254925412504308],[-73.219974939975387,5.3255108438583028],[-73.220166199884119,5.3255732355925272],[-73.220277755339652,5.3255946950879416],[-73.22041304196047,5.3255940430442514],[-73.220532415195052,5.3255636065004612],[-73.220638890036838,5.3255040215123115],[-73.220730900289098,5.32541878379139],[-73.220839314013674,5.3252869620976515],[-73.221020992642266,5.3250290979855981],[-73.22110125870374,5.3249436734703854],[-73.221190771290424,5.3248707808992304],[-73.221267252142766,5.3248352580874263],[-73.22135488862034,5.324818315609158],[-73.221447508940983,5.3248160921966186],[-73.221559224872991,5.324832125880075],[-73.221646869720487,5.3248335387416175],[-73.221738720346977,5.3248250918182531],[-73.221823407964663,5.3248006568644923],[-73.22192198914226,5.3247503997145094],[-73.222010562548761,5.324692503359155],[-73.22221407463033,5.3245082507793287],[-73.222324420930804,5.3244215319589987],[-73.222407379700712,5.3243828074668977],[-73.222502259385251,5.3243640874921558],[-73.222567872755192,5.3243685571564843],[-73.222628990405042,5.3243925684778279],[-73.222711425426411,5.324451576005953],[-73.222787214492229,5.3245288616680151],[-73.222889565323925,5.3246696412512655],[-73.223015437973245,5.324879090678813],[-73.223110057141,5.3250016316676376],[-73.223144970225889,5.3250686982488773],[-73.223163887240361,5.3251448777240018],[-73.223189896790728,5.3251792242312943],[-73.223233168457824,5.3251849082927354],[-73.223293756400764,5.3251744153821248],[-73.223338624234117,5.32518216046675],[-73.223383018169827,5.3252177591654206],[-73.223465853751378,5.3253128627004021],[-73.223513911448165,5.3253353555370788],[-73.223588415231717,5.3253508285742317],[-73.22372064027924,5.3253583428088973],[-73.223875261956636,5.3253514882005826],[-73.224022927466279,5.3253315306568911],[-73.224157922601108,5.3252991555442213],[-73.224285476428875,5.3252529382937741],[-73.224452798525107,5.3251721886010461],[-73.224617609609197,5.3250764971866529],[-73.224799484998456,5.3249547904663066],[-73.225077448260194,5.3247404635190199],[-73.225436348438265,5.324415864149044],[-73.225661058075133,5.3242354290927167],[-73.225906058915044,5.3240638737002701],[-73.226316899387541,5.3238139080289262],[-73.226624089103083,5.3236041028694023],[-73.226874276663537,5.3234155998269221],[-73.227146107332871,5.3231728307474722],[-73.227322771388629,5.3230594476965019],[-73.227406263046532,5.3230250853986538],[-73.227493273142485,5.3230026398447805],[-73.227581847395314,5.3229909678246132],[-73.227675646495641,5.3229910173383388],[-73.227889051853708,5.3230246490995183],[-73.228222068301605,5.3231244287956656],[-73.228364937051623,5.3231562294346864],[-73.228529516934216,5.3231638265931727],[-73.228687397299538,5.3231346683812131],[-73.228767601582405,5.3231031298424236],[-73.22884557785757,5.3230603166239909],[-73.229003153564136,5.3229399354311857],[-73.229151821849513,5.3227845925219235],[-73.229474285029923,5.3224159405235634],[-73.229694123585318,5.3222043156779719],[-73.229748059142949,5.3221637095765404],[-73.229801916825579,5.3221468400536134],[-73.230271747070603,5.322101721972694],[-73.23054922730519,5.3220586122425848],[-73.23076493156465,5.3219986869435658],[-73.230932785368466,5.3219176122686997],[-73.231032198367771,5.3218399361752651],[-73.231107311980296,5.3217482949492849],[-73.231160019326083,5.3216444291247793],[-73.231269121125138,5.3213634872608866],[-73.231458000142624,5.3210088912097042],[-73.231793018990345,5.3204921486995644],[-73.231842200499869,5.3204345635459669],[-73.23189235222047,5.3204000575397226],[-73.231952916709957,5.3203817083409151],[-73.232032277713316,5.3203757542923169],[-73.23231644739765,5.320383064713563],[-73.232664201783564,5.3204154622664808],[-73.232761973904715,5.3204126288827762],[-73.232854213966206,5.3203976713708521],[-73.233020457159768,5.320347708222501],[-73.233413280944276,5.320195050382285],[-73.23420209749635,5.3198288284504791],[-73.23470419715521,5.3196135388500361],[-73.234907431781153,5.3195432409820791],[-73.235016822062136,5.3195188238121265],[-73.235106778778487,5.3195093204188719],[-73.235485586974889,5.3195280859955663],[-73.235645847605994,5.3195125554663756],[-73.235853489133873,5.319449505626106],[-73.236361097089443,5.3192478927036655],[-73.236488047547056,5.319206930432796],[-73.236603479831373,5.3191825197191509],[-73.236703632677703,5.3191774440066837],[-73.236800394547714,5.319191991054387],[-73.236884574043131,5.3192238122793878],[-73.236964051793521,5.3192758079229723],[-73.237006831155611,5.319324231117263],[-73.237012590559473,5.3193404176825814]]},"properties":{"OBJECTID":1,"TIPO_VIA":1,"ESTADO_SUP":"3301","NUMERO_CAR":"3501","ACCESIBILI":"3600","NOMBRE_GEO":" ","PROYECTO":" ","SYMBOL":"2","FECHA":null,"RULEID":1,"PK_CUE":2072692,"GLOBALID":"{87EE7C04-4974-41EE-AE00-837765E11F19}","EJE_VIAL":"Ramiriquí-Zetaquira","SHAPE_Leng":37096.5128931,"Shape_Length":5299.4645930486604}},{"type":"Feature","id":2,"geometry":{"type":"LineString","coordinates":[[-73.217872857899664,5.3261127015291887],[-73.217871093662055,5.3261153502090313],[-73.217787340644293,5.3262411063685642],[-73.217708384941929,5.3263829301572407],[-73.217670283113961,5.3264718489736911],[-73.217639526968398,5.3265778508522441],[-73.217546625459676,5.3273064021613168],[-73.217541892293326,5.3273958205085057],[-73.217548908621239,5.3274673417757512],[-73.217574404293359,5.3275455291416769],[-73.217672743138266,5.327735717261203],[-73.217805317125297,5.328055819921242],[-73.218037109369746,5.3284240981252351],[-73.218127988417791,5.3285852968445377],[-73.218546912148994,5.3294327223256053],[-73.218582748779212,5.3295383458255845],[-73.218604591235788,5.3296438177273195],[-73.218648367126917,5.3301042768928051],[-73.21873319697653,5.3303671372623125],[-73.218741925311718,5.3304715793909896],[-73.218725621877525,5.3305185098820056],[-73.218690122486294,5.3305624516171219],[-73.21851762284642,5.3306870900513958],[-73.218462318240711,5.3307389169074968],[-73.218288996781126,5.3309886159964783],[-73.218209881453234,5.3310785240858003],[-73.218087175924438,5.3311874917151458],[-73.217722022060755,5.331480047433919],[-73.217542724778596,5.331599292353796],[-73.217328914038447,5.3317116740671411],[-73.217058812420987,5.3318321944064175],[-73.216977770661316,5.3318545577054088],[-73.216817775350037,5.3318987097604866],[-73.216743837522785,5.3319464279631648],[-73.216716415536439,5.3319935252255029],[-73.216700122869881,5.3320614093302163],[-73.21669974826176,5.3322676844662942],[-73.216739687285099,5.332426510273387],[-73.216825345539178,5.3326121045966719],[-73.216951814300415,5.3328383139679438],[-73.217027951876162,5.3329530385791912],[-73.217102911922794,5.3330313252334092],[-73.21717183129752,5.3330627508549666],[-73.217207519764571,5.3330602449530531],[-73.217243681279527,5.333042112098429],[-73.217372224298344,5.33292448886756],[-73.217425958119733,5.3328880468979367],[-73.217557962207124,5.3328378971323991],[-73.217679317088511,5.332817763003078],[-73.217742446370409,5.3328217652299479],[-73.217801063583209,5.3328430538069309],[-73.217982114145073,5.3329681822153656],[-73.218043984446183,5.3330019252479968],[-73.218106877599652,5.3330198908972362],[-73.218180610981193,5.3330272912446182],[-73.21828676510205,5.33302171492456],[-73.218621917719247,5.3329768332521841],[-73.218668463478537,5.3329814412984158],[-73.21890428215103,5.3330047871744011],[-73.219000002271216,5.3330044399644043],[-73.219106557316536,5.3329888177662657],[-73.219400304415629,5.3329242646778914],[-73.219675092495208,5.3329064248052997],[-73.219808418221717,5.3329145874067807],[-73.219921348274468,5.3329333567315009],[-73.220316494419578,5.3330577535177017],[-73.220432718707002,5.3330750554530102],[-73.220537403264416,5.3330781963126581],[-73.220655021275476,5.3330666270328395],[-73.220760847168705,5.3330446616071567],[-73.221117651477627,5.3329345296607107],[-73.221246632873729,5.3329137205733641],[-73.221361081858348,5.3329103770162671],[-73.22153683705541,5.3329384314381478],[-73.221593179775283,5.3329591919422414],[-73.221633768043844,5.3329861737158861]]},"properties":{"OBJECTID":2,"TIPO_VIA":4,"ESTADO_SUP":"3306","NUMERO_CAR":"3502","ACCESIBILI":"3600","NOMBRE_GEO":" ","PROYECTO":" ","SYMBOL":"2","FECHA":null,"RULEID":4,"PK_CUE":2072426,"GLOBALID":"{1478BDF7-00D0-4773-93D1-3D1183B66F9E}","EJE_VIAL":" ","SHAPE_Leng":5078.1786130700002,"Shape_Length":1457.0773982330156}},{"type":"Feature","id":3,"geometry":{"type":"LineString","coordinates":[[-73.188514651133758,5.3244845062175816],[-73.188493849835012,5.3244835342668129]]},"properties":{"OBJECTID":3,"TIPO_VIA":7,"ESTADO_SUP":"Sin Valor","NUMERO_CAR":"Sin Valor","ACCESIBILI":"Sin Valor","NOMBRE_GEO":" ","PROYECTO":" ","SYMBOL":"2","FECHA":null,"RULEID":7,"PK_CUE":2068787,"GLOBALID":"{A5556F28-9278-48F9-B292-441C54A8B750}","EJE_VIAL":" ","SHAPE_Leng":1579.09168312,"Shape_Length":2.3063347652938928}},{"type":"Feature","id":4,"geometry":{"type":"LineString","coordinates":[[-73.216979376233581,5.3318551281995354],[-73.216977770661316,5.3318545577054088],[-73.216431820305374,5.3316606700133402],[-73.216249776422998,5.3315254831974936],[-73.216042481264637,5.3313239363772835],[-73.21588596664094,5.3312205044762395],[-73.215730334123876,5.3311970225064069],[-73.215585148572316,5.3312210262654673],[-73.215437734886535,5.3312690768537543],[-73.215221016172748,5.331377979106108],[-73.215029001704792,5.3315097974278096],[-73.214806030926297,5.3316571935584882],[-73.214667600275064,5.3317603106164402],[-73.214553056260101,5.3318640754454059],[-73.214411454752891,5.3320147590070768],[-73.214182356717785,5.3322409462200007],[-73.213974819758619,5.3324168806680543],[-73.21369874006578,5.332590210722401],[-73.213552117233377,5.3327020953987025],[-73.21332284012513,5.3329160032113982],[-73.21319737297371,5.3330087721127262],[-73.21291843673049,5.3331711775560358],[-73.212747720949579,5.3333136958902108],[-73.212770966172286,5.3334257759101771],[-73.212506070000941,5.3335359690717645],[-73.212243690528013,5.3334159831050201],[-73.211861737291954,5.33346329201758],[-73.211408146103821,5.33353442344134],[-73.21114556577524,5.3335579769156292],[-73.210687686918135,5.3336886217706221]]},"properties":{"OBJECTID":4,"TIPO_VIA":5,"ESTADO_SUP":"3306","NUMERO_CAR":"Sin Valor","ACCESIBILI":"3601","NOMBRE_GEO":" ","PROYECTO":" ","SYMBOL":"2","FECHA":null,"RULEID":5,"PK_CUE":2069098,"GLOBALID":"{87DA3F58-4788-4CBD-9BB7-C6A99B20B24B}","EJE_VIAL":" ","SHAPE_Leng":820.60676033799996,"Shape_Length":820.60676033763684}},{"type":"Feature","id":5,"geometry":{"type":"LineString","coordinates":[[-73.193019600147721,5.3243464663061548],[-73.193800522604107,5.3248580993926664],[-73.194002848944649,5.3252411617884006],[-73.194467820558401,5.3255528318601009],[-73.194897486449804,5.3255175626427755],[-73.195291658096536,5.3252669328036806],[-73.195864545283058,5.3252199066613697],[-73.196138629464556,5.3254954167102326],[-73.196663356268971,5.325747362533197],[-73.197236397234192,5.325592680500252],[-73.197594716162271,5.3253778828046432],[-73.197976902110526,5.3251631188675113],[-73.198180047620411,5.3249720222328003],[-73.198108649070093,5.3248283812106898],[-73.197822375675699,5.3247322788057323],[-73.197583973359087,5.3245405520380817],[-73.197572362650035,5.3243132643186568],[-73.197703990144035,5.3240622573938232],[-73.197990858827723,5.3237397029742528],[-73.198352235833397,5.3233147859201537],[-73.198360402077242,5.3232006325748218],[-73.198428333349199,5.3230541266941467],[-73.198607106423452,5.3228554284607767],[-73.198846858342279,5.3226933996072621],[-73.199348207602156,5.3224345676812632],[-73.199493600323407,5.3223569268891699],[-73.199854281663178,5.3221601242175902],[-73.200005881611006,5.322079535488462],[-73.200233857276046,5.3219621350707254],[-73.200402515238665,5.3218806664652245],[-73.200564913031641,5.3218176231384673],[-73.200779763365304,5.3217595022282351],[-73.200934426392251,5.3217311060089036],[-73.201357883320355,5.3216730480795986],[-73.201563749684425,5.3216286977501293],[-73.20170690534114,5.3215812039652723],[-73.201918197600222,5.3214884255733175],[-73.202124514117713,5.3213823532436537],[-73.202456431725949,5.3211947941523308],[-73.202619565945056,5.3211126516339382],[-73.202754969119908,5.3210540457356279],[-73.202968139830034,5.3209774198964448],[-73.203325597373194,5.3208676909267991],[-73.203487841608862,5.3208144825456847],[-73.203650617297058,5.3207575480221454],[-73.203814164225179,5.320695735199175],[-73.203986147316925,5.3206243725947449],[-73.204160814609054,5.3205473509339098],[-73.204429232211481,5.3204246422127843],[-73.204908638379578,5.3202003673528147]]},"properties":{"OBJECTID":5,"TIPO_VIA":5,"ESTADO_SUP":"3306","NUMERO_CAR":"Sin Valor","ACCESIBILI":"3601","NOMBRE_GEO":" ","PROYECTO":" ","SYMBOL":"2","FECHA":null,"RULEID":5,"PK_CUE":2064691,"GLOBALID":"{FFB36F0D-4BDC-4B90-9B8D-67FE94759ADC}","EJE_VIAL":" ","SHAPE_Leng":1747.9710929,"Shape_Length":1747.9710929024784}},{"type":"Feature","id":6,"geometry":{"type":"LineString","coordinates":[[-73.212856823808934,5.3241526938083927],[-73.212759722251661,5.3243198888723899],[-73.212676798566321,5.3247069365125865],[-73.212627723947534,5.3248717058391719],[-73.21256578456665,5.3250252909742768],[-73.212493650226548,5.3251701354229635],[-73.212152388597232,5.3255810249422986],[-73.211948767558667,5.3257762647949605],[-73.211795543263705,5.3259494421362801],[-73.211578986063145,5.326252730838231],[-73.211425976429439,5.3264285225913204],[-73.211252717676928,5.326557717810414],[-73.211053210701408,5.3266395818568215],[-73.210874167997929,5.3266554012188143],[-73.210645403184557,5.3266069728393868],[-73.210366206072521,5.3264792864196684],[-73.209897232161367,5.3262087410029526],[-73.209749503565391,5.3261302012416794],[-73.209562475339609,5.326043649196178],[-73.209258511940604,5.3259154140997671],[-73.209107379337325,5.3258495843798697],[-73.208934884548924,5.3257662490343511],[-73.208802221085136,5.3256931167853372],[-73.208678200337275,5.3256149985966337],[-73.208499497908605,5.3254851567974946],[-73.208138698955565,5.325195000705091],[-73.207910868212139,5.3250571551309926],[-73.207620389286447,5.3250251207569628],[-73.207431518429829,5.325104297600312],[-73.207153912408813,5.3252834489534262],[-73.206940984019468,5.3253772595995343],[-73.206707116939867,5.3254240176165935],[-73.206306647682538,5.32544939441767],[-73.206154940216578,5.325464513624981],[-73.205936299291793,5.3255023781578039],[-73.205717182384404,5.3255534468613739],[-73.205501200408065,5.3256156904045655],[-73.205293545984304,5.3256892627216779],[-73.2051586900389,5.3257503034918239],[-73.204972757374122,5.3258588914305314],[-73.204764994733068,5.3260097007435858],[-73.204446855573082,5.3262714790939167],[-73.204313716720691,5.3263762319817269],[-73.204178628604737,5.3264786940043116],[-73.203906716826353,5.326680778619421],[-73.203772698298167,5.3267825849759056],[-73.203626514657117,5.3269027878372146],[-73.2034896568248,5.3270470400227197],[-73.203390176773922,5.3272061672404245],[-73.20333193858022,5.3273653034491275],[-73.203293392648916,5.3275325881915334],[-73.203259220908308,5.3277482379132088],[-73.203228363952292,5.3280113452391307],[-73.203204405766016,5.328276284739264],[-73.203198221507449,5.3283661578487935],[-73.202960239040209,5.3286568611758813],[-73.202487049936195,5.3290868087827405],[-73.202214511691807,5.3294022091522217],[-73.201755845771757,5.3296886359401965],[-73.201383042787015,5.3300182467047295],[-73.201010116621461,5.3304339816292536],[-73.200708995924117,5.3307062787629969],[-73.200450899053365,5.3309355746891383],[-73.200321585523326,5.3312368239190224],[-73.20032150390881,5.3312942395658425],[-73.200393025726001,5.331351757689605],[-73.200550451418309,5.3314237514905294],[-73.200636354381231,5.3314382280697545],[-73.200936966402452,5.3315247800993975],[-73.201237556992282,5.3316256863423579],[-73.201566626791575,5.3318414650140102],[-73.201709325165822,5.3322005178724847],[-73.20169449550778,5.3325593472412836],[-73.201507349876522,5.3332480719450581],[-73.201435095104813,5.3337072965273995],[-73.201147968056716,5.334209277104347],[-73.200904027058087,5.3345534251767637],[-73.200545438785952,5.334954825267058],[-73.200259105901694,5.334897000707163],[-73.199958839486172,5.3345664305790752],[-73.199801719915939,5.3342791266434357],[-73.199544253116429,5.3340634487292684],[-73.199243743277108,5.3339051260554289],[-73.19882850397353,5.3338614706637326],[-73.198527994404785,5.3337031476285421],[-73.198342111291893,5.3335019262228913],[-73.198213634029401,5.333214663276153],[-73.198113634531126,5.3330422721477291],[-73.19791306287631,5.3330994012059163],[-73.197669161821324,5.3334148402325026],[-73.197310203977509,5.334074608938371]]},"properties":{"OBJECTID":6,"TIPO_VIA":5,"ESTADO_SUP":"3306","NUMERO_CAR":"Sin Valor","ACCESIBILI":"3601","NOMBRE_GEO":" ","PROYECTO":" ","SYMBOL":"2","FECHA":null,"RULEID":5,"PK_CUE":2064692,"GLOBALID":"{22967B1E-5747-4469-A21B-48F5DC064319}","EJE_VIAL":" ","SHAPE_Leng":2961.6854457300001,"Shape_Length":2961.6854457346476}},{"type":"Feature","id":7,"geometry":{"type":"LineString","coordinates":[[-73.238909860028301,5.3125730519773722],[-73.23858894084735,5.3129657368240082],[-73.238258081681536,5.3133496196271111],[-73.237877895368456,5.3137391612880931],[-73.237798782022935,5.3138634547866594],[-73.237738483457932,5.3140269061503709],[-73.237699375043334,5.3142221431799133],[-73.237677588042274,5.3144659091088116],[-73.237674099347672,5.3146827177592142],[-73.237693632494725,5.3148480633187649],[-73.237715677994117,5.3149276348834125],[-73.237746377364758,5.3149947339144568],[-73.237929001958733,5.3152589059066955],[-73.238013477319114,5.3154300284090841],[-73.238085083528446,5.3156189275013892],[-73.23811027006596,5.3157732578149259],[-73.23810485260185,5.315873918494475],[-73.238083085619621,5.3159884583477783],[-73.237977589875058,5.3163152928440729],[-73.237909873605872,5.316461389936797],[-73.237747819494487,5.3167679658867657],[-73.237586819638892,5.3170246664117951],[-73.237557491325475,5.3170933171196975],[-73.237543443263576,5.3171567671972326],[-73.237541906055199,5.3172332065587025],[-73.237551884964859,5.3173161964564768],[-73.237603531830615,5.3174832853486347],[-73.237651628054977,5.3175666180365795],[-73.237786891106325,5.3177095842833637],[-73.237825199094303,5.3177903541269611],[-73.237853123025161,5.3179723657610891],[-73.23785856030635,5.3180713968536466],[-73.237852075597942,5.3181603317522814],[-73.237783275265457,5.3184959885555703],[-73.237772100600068,5.3186569620682365],[-73.237746150394614,5.3187126698706138],[-73.237608057952613,5.3188746552285489]]},"properties":{"OBJECTID":7,"TIPO_VIA":6,"ESTADO_SUP":"3350","NUMERO_CAR":"Sin Valor","ACCESIBILI":"3601","NOMBRE_GEO":" ","PROYECTO":" ","SYMBOL":"2","FECHA":null,"RULEID":6,"PK_CUE":2085580,"GLOBALID":"{06196B01-50EA-4C76-8448-ABF605C1816D}","EJE_VIAL":" ","SHAPE_Leng":877.78681608900001,"Shape_Length":786.35832995138514}},{"type":"Feature","id":8,"geometry":{"type":"MultiLineString","coordinates":[[[-73.228944407565635,5.3021008959767233],[-73.228235359108638,5.3011448912597343],[-73.227525752555323,5.2997729391761199],[-73.227174295970613,5.2986987429850467],[-73.227098154820411,5.2983098351568856],[-73.226938182780671,5.2973873547570083],[-73.226846007169883,5.2971815234103552],[-73.226640283730148,5.2967302815795065],[-73.22642625078862,5.2965819257208056],[-73.22608381283375,5.2963418415116994],[-73.225839363982175,5.2961765068039615],[-73.225518314552872,5.2959522684104945],[-73.224083411337645,5.2960592265259852]],[[-73.216866627154516,5.3033876703276821],[-73.216821410324869,5.3034358915134252],[-73.215334113753798,5.3050997599275274],[-73.214997640874287,5.3054327024403474],[-73.212891828815643,5.3075365025813603],[-73.21267848834114,5.3077012181085497],[-73.212221326106288,5.3080599871649197],[-73.211213318378341,5.3088485996077077],[-73.210687309298777,5.3092581332011157],[-73.209344210551095,5.3101875479327125],[-73.207948058222556,5.3111575755747973],[-73.206461229770724,5.3124642751810978],[-73.205782382179379,5.313307585477701],[-73.205270683016394,5.3139499617095272],[-73.204553171581978,5.315020394918534],[-73.202524083671889,5.3170406065572902],[-73.201593780352241,5.3178790410120396],[-73.201312256698785,5.3181345837920855]]]},"properties":{"OBJECTID":8,"TIPO_VIA":7,"ESTADO_SUP":"Sin Valor","NUMERO_CAR":"Sin Valor","ACCESIBILI":"Sin Valor","NOMBRE_GEO":" ","PROYECTO":" ","SYMBOL":"2","FECHA":null,"RULEID":7,"PK_CUE":2065662,"GLOBALID":"{2EE4DA33-3903-4FAB-BA12-EBB423A8B08E}","EJE_VIAL":" ","SHAPE_Leng":4563.5500580600001,"Shape_Length":3348.5039770807043}}]}